{
"type": "FeatureCollection",
"name": "india_point2",
"crs": { "type": "name", "properties": { "name": "urn:ogc:def:crs:OGC:1.3:CRS84" } },
"features": [
{ "type": "Feature", "properties": { "id": 1, "ward": "Ward 5", "district": "District 3", "ward_id": "77027151", "dist_id": "770", "rhealpix": "R31260361731", "isea4t": "1310231333101032203131021002", "isea3h": "132022628,-1037", "ease": "L1.165767.02", "s2": "31752f231", "olc": "7P28QMCP+M7F", "geohash": "w3gv78yjs", "qtm": "42012323103132022", "georef": "VGBL41144630", "tilecode": "z20x835032y492726", "mgrs": "48PXS89", "maidenhead": "OK30is25", "quadkey": "13223011130131231220302", "h3": "8b65b56638aafff", "gars": "574JK1917", "a5": "7a9409a368000000", "dggal_gnosis": "16-385712-CBDD89", "dggal_isea3h": "N7-31DBFD6776-F", "dggaL_ivea3h": "N7-3158479964-E", "dggal_ivea9r": "N7-3158479964", "dggal_rtea3h": "N7-3117D9907F-D", "dggal_rtea9r": "N7-3117D9907F", "dggal_isea9r": "H7-629F1", "igeo7": "13163213747506903" }, "geometry": { "type": "Point", "coordinates": [ 77.609721688780567, 12.98000733266093 ] } },
{ "type": "Feature", "properties": { "id": 2, "ward": "Ward 2", "district": "District 3", "ward_id": "77027157", "dist_id": "770", "rhealpix": "R31260364035", "isea4t": "1310231333101002023110233100", "isea3h": "132022623,-1041", "ease": "L1.165767.02", "s2": "31752f1f5", "olc": "7P28QM9J+2M6", "geohash": "w3gv785jq", "qtm": "42012323103123330", "georef": "VGBL40894605", "tilecode": "z20x835020y492739", "mgrs": "48PXS89", "maidenhead": "OK30is14", "quadkey": "13223011130133001122110", "h3": "8b65b5663845fff", "gars": "574JK1916", "a5": "7a9409bee8000000", "dggal_gnosis": "16-3857D4-CBDCCC", "dggal_isea3h": "N7-31D2F64B93-D", "dggaL_ivea3h": "N7-314F2829AE-E", "dggal_ivea9r": "N7-314F2829AE", "dggal_rtea3h": "N7-310EA1CCF7-F", "dggal_rtea9r": "N7-310EA1CCF7", "dggal_isea9r": "H7-629F1", "igeo7": "13163115890006113" }, "geometry": { "type": "Point", "coordinates": [ 77.605669859778189, 12.975847655767224 ] } },
{ "type": "Feature", "properties": { "id": 3, "ward": "Ward 4", "district": "District 3", "ward_id": "77027148", "dist_id": "770", "rhealpix": "R31260361377", "isea4t": "1310231333101123312323031101", "isea3h": "132022630,-1039", "ease": "L1.165767.02", "s2": "31752f23f", "olc": "7P28QMFM+F5J", "geohash": "w3gv79k17", "qtm": "42012323103101031", "georef": "VGBL40974642", "tilecode": "z20x835024y492720", "mgrs": "48PXS89", "maidenhead": "OK30is15", "quadkey": "13223011130131230000213", "h3": "8b65b566312bfff", "gars": "574JK1916", "a5": "7a9409a2c8000000", "dggal_gnosis": "16-3856B4-CBDD06", "dggal_isea3h": "N7-31D56ECFA6-D", "dggaL_ivea3h": "N7-3151B90196-D", "dggal_ivea9r": "N7-3151A0ADC2", "dggal_rtea3h": "N7-31114AF8B1-D", "dggal_rtea9r": "N7-311132A4DE", "dggal_isea9r": "H7-629F1", "igeo7": "13163142240915679" }, "geometry": { "type": "Point", "coordinates": [ 77.606917748097672, 12.98201783351675 ] } },
{ "type": "Feature", "properties": { "id": 4, "ward": "Ward 3", "district": "District 3", "ward_id": "77027154", "dist_id": "770", "rhealpix": "R31260360881", "isea4t": "1310231333101020233133102030", "isea3h": "132022625,-1042", "ease": "L1.165767.02", "s2": "31752f21b", "olc": "7P28QMCH+4QG", "geohash": "w3gv789te", "qtm": "42012323103123313", "georef": "VGBL40764621", "tilecode": "z20x835014y492730", "mgrs": "48PXS89", "maidenhead": "OK30is14", "quadkey": "13223011130131222130231", "h3": "8b65b5663b85fff", "gars": "574JK1916", "a5": "7a9409a018000000", "dggal_gnosis": "16-385752-CBDC66", "dggal_isea3h": "N7-31CDA3F594-F", "dggaL_ivea3h": "N7-3149EE2784-F", "dggal_ivea9r": "N7-3149EE2784", "dggal_rtea3h": "N7-310967CACD-F", "dggal_rtea9r": "N7-310967CACD", "dggal_isea9r": "H7-629F1", "igeo7": "13163059314250146" }, "geometry": { "type": "Point", "coordinates": [ 77.603489104705403, 12.978630051563815 ] } },
{ "type": "Feature", "properties": { "id": 5, "ward": "Ward 10", "district": "District 3", "ward_id": "77027145", "dist_id": "770", "rhealpix": "R31260336867", "isea4t": "1310231333123303232131322133", "isea3h": "132022636,-1044", "ease": "L1.165767.02", "s2": "31752f283", "olc": "7P28QMJG+GJ3", "geohash": "w3gv76xmr", "qtm": "42012323103100021", "georef": "VGBL40594687", "tilecode": "z20x835005y492698", "mgrs": "48PXS89", "maidenhead": "OK30is17", "quadkey": "13223011130130133121131", "h3": "8b65b566376efff", "gars": "574JK1916", "a5": "7a9409cc28000000", "dggal_gnosis": "16-385554-CBDBDF", "dggal_isea3h": "N7-31C622185D-E", "dggaL_ivea3h": "N7-31429CF1F6-E", "dggal_ivea9r": "N7-31429CF1F6", "dggal_rtea3h": "N7-3102473CE7-D", "dggal_rtea9r": "N7-3102473CE7", "dggal_isea9r": "H7-62166", "igeo7": "13162978445627580" }, "geometry": { "type": "Point", "coordinates": [ 77.600586194629528, 12.989565602274602 ] } },
{ "type": "Feature", "properties": { "id": 6, "ward": "Ward 9", "district": "District 3", "ward_id": "77027142", "dist_id": "770", "rhealpix": "R31260336858", "isea4t": "1310231333123331003033332003", "isea3h": "132022638,-1041", "ease": "L1.165767.02", "s2": "31752f291", "olc": "7P28QMMJ+326", "geohash": "w3gv7dfj8", "qtm": "42012323103100033", "georef": "VGBL40804695", "tilecode": "z20x835016y492694", "mgrs": "48PXS89", "maidenhead": "OK30is17", "quadkey": "13223011130131021220002", "h3": "8b65b5663700fff", "gars": "574JK1916", "a5": "7a940996d8000000", "dggal_gnosis": "16-385513-CBDC81", "dggal_isea3h": "N7-31CE1D99E6-D", "dggaL_ivea3h": "N7-314A801FAB-F", "dggal_ivea9r": "N7-314A801FAB", "dggal_rtea3h": "N7-310A2A6A9A-F", "dggal_rtea9r": "N7-310A2A6A9A", "dggal_isea9r": "H7-629F1", "igeo7": "13163064035629965" }, "geometry": { "type": "Point", "coordinates": [ 77.604059066255004, 12.990973016886173 ] } },
{ "type": "Feature", "properties": { "id": 7, "ward": "Ward 11", "district": "District 3", "ward_id": "77027133", "dist_id": "770", "rhealpix": "R31260336380", "isea4t": "1310231333123320012120213112", "isea3h": "132022640,-1049", "ease": "L1.165767.02", "s2": "31752ed3f", "olc": "7P28QMPC+G2Q", "geohash": "w3gv77dfc", "qtm": "42012323103102013", "georef": "VGBL40204717", "tilecode": "z20x834987y492683", "mgrs": "48PXS89", "maidenhead": "OK30is08", "quadkey": "13223011130130103033021", "h3": "8b65b5645833fff", "gars": "574JK1911", "a5": "7a9409cb18000000", "dggal_gnosis": "16-385468-CBDAB2", "dggal_isea3h": "N7-31B6D560D7-D", "dggaL_ivea3h": "N7-3133688E46-E", "dggal_ivea9r": "N7-3133688E46", "dggal_rtea3h": "N7-30F312D938-E", "dggal_rtea9r": "N7-30F312D938", "dggal_isea9r": "H7-62166", "igeo7": "13162813601144131" }, "geometry": { "type": "Point", "coordinates": [ 77.594134696518296, 12.994633066187852 ] } },
{ "type": "Feature", "properties": { "id": 8, "ward": "Ward 13", "district": "District 3", "ward_id": "77027136", "dist_id": "770", "rhealpix": "R31260336574", "isea4t": "1310231333123332311211211120", "isea3h": "132022641,-1043", "ease": "L1.165767.02", "s2": "31752f2a3", "olc": "7P28QMPH+C8F", "geohash": "w3gv7e8c2", "qtm": "42012323103103202", "georef": "VGBL40694716", "tilecode": "z20x835011y492684", "mgrs": "48PXS89", "maidenhead": "OK30is18", "quadkey": "13223011130131002211002", "h3": "8b65b5663611fff", "gars": "574JK1911", "a5": "7a94099708000000", "dggal_gnosis": "16-385475-CBDC30", "dggal_isea3h": "N7-31C9D6DE0C-F", "dggaL_ivea3h": "N7-314651B7A5-F", "dggal_ivea9r": "N7-314651B7A5", "dggal_rtea3h": "N7-3106145668-E", "dggal_rtea9r": "N7-3106145668", "dggal_isea9r": "H7-62167", "igeo7": "13163018355348402" }, "geometry": { "type": "Point", "coordinates": [ 77.602333562130909, 12.994358976772098 ] } },
{ "type": "Feature", "properties": { "id": 9, "ward": "Ward 12", "district": "District 3", "ward_id": "77027130", "dist_id": "770", "rhealpix": "R31260336418", "isea4t": "1310231333123323301101031312", "isea3h": "132022643,-1047", "ease": "L1.165767.02", "s2": "31752ed51", "olc": "7P28QMQF+7HJ", "geohash": "w3gv77vtc", "qtm": "42012323103102330", "georef": "VGBL40434729", "tilecode": "z20x834998y492677", "mgrs": "48PXS89", "maidenhead": "OK30is09", "quadkey": "13223011130130110312203", "h3": "8b65b56636cbfff", "gars": "574JK1911", "a5": "7a9409ceb8000000", "dggal_gnosis": "16-385410-CBDB63", "dggal_isea3h": "N7-31BF7B2D34-E", "dggaL_ivea3h": "N7-313C0E5AA2-E", "dggal_ivea9r": "N7-313C0E5AA2", "dggal_rtea3h": "N7-30FBD0F967-D", "dggal_rtea9r": "N7-30FBD0F967", "dggal_isea9r": "H7-62167", "igeo7": "13162906979393072" }, "geometry": { "type": "Point", "coordinates": [ 77.597935436633477, 12.996532712653901 ] } },
{ "type": "Feature", "properties": { "id": 10, "ward": "Ward 14", "district": "District 3", "ward_id": "77027127", "dist_id": "770", "rhealpix": "R31260336521", "isea4t": "1310231333023330101121301202", "isea3h": "132022645,-1042", "ease": "L1.165767.02", "s2": "31752f2b1", "olc": "7P28QMQH+GRM", "geohash": "w3gv7s19t", "qtm": "42012323103113232", "georef": "VGBL40774733", "tilecode": "z20x835014y492675", "mgrs": "48PXS89", "maidenhead": "OK30is19", "quadkey": "13223011130131000132321", "h3": "8b65b5663695fff", "gars": "574JK1911", "a5": "7a94099588000000", "dggal_gnosis": "16-3853F3-CBDC6A", "dggal_isea3h": "N7-31CC800973-F", "dggaL_ivea3h": "N7-31491336E0-D", "dggal_ivea9r": "N7-31491336DF", "dggal_rtea3h": "N7-3108D5D5A2-E", "dggal_rtea9r": "N7-3108D5D5A2", "dggal_isea9r": "H7-629F2", "igeo7": "13163047167825910" }, "geometry": { "type": "Point", "coordinates": [ 77.603573749504193, 12.997156927278601 ] } },
{ "type": "Feature", "properties": { "id": 11, "ward": "Vo Thi Sau Ward", "district": "District 3", "ward_id": "77027139", "dist_id": "770", "rhealpix": "R31260337753", "isea4t": "1310231333132220002032120220", "isea3h": "132022641,-1035", "ease": "L1.165767.02", "s2": "31752f31f", "olc": "7P28QMMQ+69Q", "geohash": "w3gv7g00j", "qtm": "42012323103131122", "georef": "VGBL41304698", "tilecode": "z20x835040y492692", "mgrs": "48PXS89", "maidenhead": "OK30is27", "quadkey": "13223011130131120200323", "h3": "8b65b5663518fff", "gars": "574JK1917", "a5": "7a94098fb8000000", "dggal_gnosis": "16-3854FF-CBDE0B", "dggal_isea3h": "N7-31E1B10E21-F", "dggaL_ivea3h": "N7-315E1393E4-D", "dggal_ivea9r": "N7-315E1393E3", "dggal_rtea3h": "N7-311DD632A4-D", "dggal_rtea9r": "N7-311DBDDED0", "dggal_isea9r": "H7-629F2", "igeo7": "13163274560400553" }, "geometry": { "type": "Point", "coordinates": [ 77.612511428845778, 12.991407095519014 ] } },
{ "type": "Feature", "properties": { "id": 12, "ward": "Ward 1", "district": "District 3", "ward_id": "77027160", "dist_id": "770", "rhealpix": "R31260363208", "isea4t": "1310231333101213000203302230", "isea3h": "132022623,-1044", "ease": "L1.165767.02", "s2": "31752f1ff", "olc": "7P28QM9G+8W2", "geohash": "w3gv78218", "qtm": "42012323103123013", "georef": "VGBL40634609", "tilecode": "z20x835008y492736", "mgrs": "48PXS89", "maidenhead": "OK30is14", "quadkey": "13223011130133000000222", "h3": "8b65b5663a24fff", "gars": "574JK1916", "a5": "7a9409e0a8000000", "dggal_gnosis": "16-3857B2-CBDC00", "dggal_isea3h": "N7-31C8B2EE6B-F", "dggaL_ivea3h": "N7-3144FD205B-E", "dggal_ivea9r": "N7-3144FD205B", "dggal_rtea3h": "N7-310476C3A5-F", "dggal_rtea9r": "N7-310476C3A5", "dggal_isea9r": "H7-62166", "igeo7": "13163006249254992" }, "geometry": { "type": "Point", "coordinates": [ 77.601298400932137, 12.976564784135238 ] } }
]
}
