{
"type": "FeatureCollection",
"name": "india_point",
"crs": { "type": "name", "properties": { "name": "urn:ogc:def:crs:OGC:1.3:CRS84" } },
"features": [
{ "type": "Feature", "properties": { "Pincode": "560001" }, "geometry": { "type": "Point", "coordinates": [ 77.594395004861298, 12.981401226637137 ] } },
{ "type": "Feature", "properties": { "Pincode": "560002" }, "geometry": { "type": "Point", "coordinates": [ 77.579424040746588, 12.963229023663995 ] } },
{ "type": "Feature", "properties": { "Pincode": "560003" }, "geometry": { "type": "Point", "coordinates": [ 77.572963974643116, 13.000432266966166 ] } },
{ "type": "Feature", "properties": { "Pincode": "560004" }, "geometry": { "type": "Point", "coordinates": [ 77.573422771940912, 12.945887837020907 ] } },
{ "type": "Feature", "properties": { "Pincode": "560005" }, "geometry": { "type": "Point", "coordinates": [ 77.617890088747018, 12.999222997830911 ] } },
{ "type": "Feature", "properties": { "Pincode": "560006" }, "geometry": { "type": "Point", "coordinates": [ 77.595912979631322, 13.006889115049347 ] } },
{ "type": "Feature", "properties": { "Pincode": "560007" }, "geometry": { "type": "Point", "coordinates": [ 77.636758722259671, 12.946556506708884 ] } },
{ "type": "Feature", "properties": { "Pincode": "560008" }, "geometry": { "type": "Point", "coordinates": [ 77.635335265401096, 12.970584696671184 ] } },
{ "type": "Feature", "properties": { "Pincode": "560009" }, "geometry": { "type": "Point", "coordinates": [ 77.57704970928944, 12.977762226075763 ] } },
{ "type": "Feature", "properties": { "Pincode": "560010" }, "geometry": { "type": "Point", "coordinates": [ 77.552373234554523, 12.991368680589058 ] } },
{ "type": "Feature", "properties": { "Pincode": "560011" }, "geometry": { "type": "Point", "coordinates": [ 77.587891907117069, 12.936261062822423 ] } },
{ "type": "Feature", "properties": { "Pincode": "560012" }, "geometry": { "type": "Point", "coordinates": [ 77.566559584944045, 13.019182673547581 ] } },
{ "type": "Feature", "properties": { "Pincode": "560013" }, "geometry": { "type": "Point", "coordinates": [ 77.546600611610415, 13.055543269193453 ] } },
{ "type": "Feature", "properties": { "Pincode": "560015" }, "geometry": { "type": "Point", "coordinates": [ 77.525918929755235, 13.057670738399837 ] } },
{ "type": "Feature", "properties": { "Pincode": "560016" }, "geometry": { "type": "Point", "coordinates": [ 77.676076573067476, 13.011023886765544 ] } },
{ "type": "Feature", "properties": { "Pincode": "560017" }, "geometry": { "type": "Point", "coordinates": [ 77.664234301477791, 12.958399485045309 ] } },
{ "type": "Feature", "properties": { "Pincode": "560018" }, "geometry": { "type": "Point", "coordinates": [ 77.562583979349398, 12.959199972384235 ] } },
{ "type": "Feature", "properties": { "Pincode": "560020" }, "geometry": { "type": "Point", "coordinates": [ 77.577379472342827, 12.991354006617486 ] } },
{ "type": "Feature", "properties": { "Pincode": "560021" }, "geometry": { "type": "Point", "coordinates": [ 77.5628703732188, 12.992771452507501 ] } },
{ "type": "Feature", "properties": { "Pincode": "560022" }, "geometry": { "type": "Point", "coordinates": [ 77.544236820241608, 13.027671741709964 ] } },
{ "type": "Feature", "properties": { "Pincode": "560023" }, "geometry": { "type": "Point", "coordinates": [ 77.559372184182109, 12.973694519727196 ] } },
{ "type": "Feature", "properties": { "Pincode": "560024" }, "geometry": { "type": "Point", "coordinates": [ 77.598039712504615, 13.045947889960113 ] } },
{ "type": "Feature", "properties": { "Pincode": "560025" }, "geometry": { "type": "Point", "coordinates": [ 77.606815526593351, 12.965456002423437 ] } },
{ "type": "Feature", "properties": { "Pincode": "560026" }, "geometry": { "type": "Point", "coordinates": [ 77.534266290085966, 12.948637854513827 ] } },
{ "type": "Feature", "properties": { "Pincode": "560027" }, "geometry": { "type": "Point", "coordinates": [ 77.592757824544634, 12.957100829331765 ] } },
{ "type": "Feature", "properties": { "Pincode": "560029" }, "geometry": { "type": "Point", "coordinates": [ 77.604747161752613, 12.928374112070744 ] } },
{ "type": "Feature", "properties": { "Pincode": "560030" }, "geometry": { "type": "Point", "coordinates": [ 77.607307737654395, 12.945890335423652 ] } },
{ "type": "Feature", "properties": { "Pincode": "560032" }, "geometry": { "type": "Point", "coordinates": [ 77.599522805098459, 13.025319939072467 ] } },
{ "type": "Feature", "properties": { "Pincode": "560033" }, "geometry": { "type": "Point", "coordinates": [ 77.640712708334007, 13.003154611531654 ] } },
{ "type": "Feature", "properties": { "Pincode": "560034" }, "geometry": { "type": "Point", "coordinates": [ 77.62926895223957, 12.926075843911677 ] } },
{ "type": "Feature", "properties": { "Pincode": "560035" }, "geometry": { "type": "Point", "coordinates": [ 77.700068080556463, 12.902196699100829 ] } },
{ "type": "Feature", "properties": { "Pincode": "560036" }, "geometry": { "type": "Point", "coordinates": [ 77.699782337320627, 13.022924985522589 ] } },
{ "type": "Feature", "properties": { "Pincode": "560037" }, "geometry": { "type": "Point", "coordinates": [ 77.689077285327372, 12.954934856162527 ] } },
{ "type": "Feature", "properties": { "Pincode": "560038" }, "geometry": { "type": "Point", "coordinates": [ 77.645021323403995, 12.988824720321496 ] } },
{ "type": "Feature", "properties": { "Pincode": "560040" }, "geometry": { "type": "Point", "coordinates": [ 77.534697891891156, 12.967705199240367 ] } },
{ "type": "Feature", "properties": { "Pincode": "560041" }, "geometry": { "type": "Point", "coordinates": [ 77.590503988872157, 12.920818157305185 ] } },
{ "type": "Feature", "properties": { "Pincode": "560042" }, "geometry": { "type": "Point", "coordinates": [ 77.618268344753247, 12.984056865271866 ] } },
{ "type": "Feature", "properties": { "Pincode": "560043" }, "geometry": { "type": "Point", "coordinates": [ 77.642535361185111, 13.023005741916508 ] } },
{ "type": "Feature", "properties": { "Pincode": "560045" }, "geometry": { "type": "Point", "coordinates": [ 77.616304027569157, 13.035591261216542 ] } },
{ "type": "Feature", "properties": { "Pincode": "560047" }, "geometry": { "type": "Point", "coordinates": [ 77.621335376977569, 12.950557431535616 ] } },
{ "type": "Feature", "properties": { "Pincode": "560048" }, "geometry": { "type": "Point", "coordinates": [ 77.708083441886274, 12.98948681522408 ] } },
{ "type": "Feature", "properties": { "Pincode": "560049" }, "geometry": { "type": "Point", "coordinates": [ 77.728760556083458, 13.059797516578397 ] } },
{ "type": "Feature", "properties": { "Pincode": "560050" }, "geometry": { "type": "Point", "coordinates": [ 77.555462358768963, 12.941591798103843 ] } },
{ "type": "Feature", "properties": { "Pincode": "560051" }, "geometry": { "type": "Point", "coordinates": [ 77.602395090584849, 12.98845506437547 ] } },
{ "type": "Feature", "properties": { "Pincode": "560053" }, "geometry": { "type": "Point", "coordinates": [ 77.573369270633336, 12.969601664687435 ] } },
{ "type": "Feature", "properties": { "Pincode": "560054" }, "geometry": { "type": "Point", "coordinates": [ 77.557379235481378, 13.035192910304925 ] } },
{ "type": "Feature", "properties": { "Pincode": "560055" }, "geometry": { "type": "Point", "coordinates": [ 77.560801134284063, 13.010532974796835 ] } },
{ "type": "Feature", "properties": { "Pincode": "560056" }, "geometry": { "type": "Point", "coordinates": [ 77.499345538251603, 12.948564201269898 ] } },
{ "type": "Feature", "properties": { "Pincode": "560057" }, "geometry": { "type": "Point", "coordinates": [ 77.512893860723025, 13.052465741308914 ] } },
{ "type": "Feature", "properties": { "Pincode": "560058" }, "geometry": { "type": "Point", "coordinates": [ 77.510152651707784, 13.019477712385667 ] } },
{ "type": "Feature", "properties": { "Pincode": "560059" }, "geometry": { "type": "Point", "coordinates": [ 77.499341064052132, 12.920187725157781 ] } },
{ "type": "Feature", "properties": { "Pincode": "560060" }, "geometry": { "type": "Point", "coordinates": [ 77.468338655490129, 12.920300518841168 ] } },
{ "type": "Feature", "properties": { "Pincode": "560061" }, "geometry": { "type": "Point", "coordinates": [ 77.541607176263128, 12.902164667567593 ] } },
{ "type": "Feature", "properties": { "Pincode": "560062" }, "geometry": { "type": "Point", "coordinates": [ 77.56256298669166, 12.882541828394677 ] } },
{ "type": "Feature", "properties": { "Pincode": "560063" }, "geometry": { "type": "Point", "coordinates": [ 77.613829018041784, 13.132029965731835 ] } },
{ "type": "Feature", "properties": { "Pincode": "560064" }, "geometry": { "type": "Point", "coordinates": [ 77.605378730166805, 13.101340894256015 ] } },
{ "type": "Feature", "properties": { "Pincode": "560065" }, "geometry": { "type": "Point", "coordinates": [ 77.576895202820481, 13.083474654935328 ] } },
{ "type": "Feature", "properties": { "Pincode": "560066" }, "geometry": { "type": "Point", "coordinates": [ 77.742656225015168, 12.970771240571992 ] } },
{ "type": "Feature", "properties": { "Pincode": "560067" }, "geometry": { "type": "Point", "coordinates": [ 77.781065625811905, 13.001957471688939 ] } },
{ "type": "Feature", "properties": { "Pincode": "560068" }, "geometry": { "type": "Point", "coordinates": [ 77.639080911040409, 12.89758216619385 ] } },
{ "type": "Feature", "properties": { "Pincode": "560070" }, "geometry": { "type": "Point", "coordinates": [ 77.567004294890566, 12.922652284284391 ] } },
{ "type": "Feature", "properties": { "Pincode": "560071" }, "geometry": { "type": "Point", "coordinates": [ 77.639534808513687, 12.957668762285666 ] } },
{ "type": "Feature", "properties": { "Pincode": "560072" }, "geometry": { "type": "Point", "coordinates": [ 77.515415141293289, 12.966884817757137 ] } },
{ "type": "Feature", "properties": { "Pincode": "560073" }, "geometry": { "type": "Point", "coordinates": [ 77.491678622679643, 13.047149229519189 ] } },
{ "type": "Feature", "properties": { "Pincode": "560074" }, "geometry": { "type": "Point", "coordinates": [ 77.442902250743117, 12.878087163493646 ] } },
{ "type": "Feature", "properties": { "Pincode": "560075" }, "geometry": { "type": "Point", "coordinates": [ 77.662018614021036, 12.973602271042996 ] } },
{ "type": "Feature", "properties": { "Pincode": "560076" }, "geometry": { "type": "Point", "coordinates": [ 77.601003875214246, 12.887156876326863 ] } },
{ "type": "Feature", "properties": { "Pincode": "560077" }, "geometry": { "type": "Point", "coordinates": [ 77.661826917279868, 13.074033542716526 ] } },
{ "type": "Feature", "properties": { "Pincode": "560078" }, "geometry": { "type": "Point", "coordinates": [ 77.583743321707672, 12.90038446038314 ] } },
{ "type": "Feature", "properties": { "Pincode": "560079" }, "geometry": { "type": "Point", "coordinates": [ 77.532819002645596, 12.98776093407648 ] } },
{ "type": "Feature", "properties": { "Pincode": "560080" }, "geometry": { "type": "Point", "coordinates": [ 77.579596996054804, 13.011569753918518 ] } },
{ "type": "Feature", "properties": { "Pincode": "560081" }, "geometry": { "type": "Point", "coordinates": [ 77.705061830139712, 12.7979197318722 ] } },
{ "type": "Feature", "properties": { "Pincode": "560082" }, "geometry": { "type": "Point", "coordinates": [ 77.511939562924866, 12.826281536025414 ] } },
{ "type": "Feature", "properties": { "Pincode": "560083" }, "geometry": { "type": "Point", "coordinates": [ 77.579294003216503, 12.77937000297854 ] } },
{ "type": "Feature", "properties": { "Pincode": "560084" }, "geometry": { "type": "Point", "coordinates": [ 77.627451216469581, 13.013013768830508 ] } },
{ "type": "Feature", "properties": { "Pincode": "560085" }, "geometry": { "type": "Point", "coordinates": [ 77.543896027692469, 12.930662090109386 ] } },
{ "type": "Feature", "properties": { "Pincode": "560086" }, "geometry": { "type": "Point", "coordinates": [ 77.541244329880612, 13.004392212035199 ] } },
{ "type": "Feature", "properties": { "Pincode": "560087" }, "geometry": { "type": "Point", "coordinates": [ 77.759244367535203, 12.932353621089387 ] } },
{ "type": "Feature", "properties": { "Pincode": "560088" }, "geometry": { "type": "Point", "coordinates": [ 77.472149100491379, 13.153031921145905 ] } },
{ "type": "Feature", "properties": { "Pincode": "560089" }, "geometry": { "type": "Point", "coordinates": [ 77.507449918342985, 13.147514373592072 ] } },
{ "type": "Feature", "properties": { "Pincode": "560090" }, "geometry": { "type": "Point", "coordinates": [ 77.504064348737856, 13.092614866148288 ] } },
{ "type": "Feature", "properties": { "Pincode": "560091" }, "geometry": { "type": "Point", "coordinates": [ 77.486704620577413, 12.989989938461129 ] } },
{ "type": "Feature", "properties": { "Pincode": "560092" }, "geometry": { "type": "Point", "coordinates": [ 77.590072674823034, 13.059914495799784 ] } },
{ "type": "Feature", "properties": { "Pincode": "560093" }, "geometry": { "type": "Point", "coordinates": [ 77.667729408180833, 12.984464095726461 ] } },
{ "type": "Feature", "properties": { "Pincode": "560094" }, "geometry": { "type": "Point", "coordinates": [ 77.574206421511903, 13.038760485993867 ] } },
{ "type": "Feature", "properties": { "Pincode": "560095" }, "geometry": { "type": "Point", "coordinates": [ 77.619382714716338, 12.937937560744967 ] } },
{ "type": "Feature", "properties": { "Pincode": "560096" }, "geometry": { "type": "Point", "coordinates": [ 77.534520173329909, 13.014381832826801 ] } },
{ "type": "Feature", "properties": { "Pincode": "560097" }, "geometry": { "type": "Point", "coordinates": [ 77.549382505824994, 13.084549982418038 ] } },
{ "type": "Feature", "properties": { "Pincode": "560098" }, "geometry": { "type": "Point", "coordinates": [ 77.519154307992537, 12.915003570191397 ] } },
{ "type": "Feature", "properties": { "Pincode": "560099" }, "geometry": { "type": "Point", "coordinates": [ 77.706008739555401, 12.841627173807552 ] } },
{ "type": "Feature", "properties": { "Pincode": "560100" }, "geometry": { "type": "Point", "coordinates": [ 77.664901852595008, 12.851009256100754 ] } },
{ "type": "Feature", "properties": { "Pincode": "560102" }, "geometry": { "type": "Point", "coordinates": [ 77.654077950473237, 12.911422812420041 ] } },
{ "type": "Feature", "properties": { "Pincode": "560103" }, "geometry": { "type": "Point", "coordinates": [ 77.687244527617025, 12.929985425023524 ] } },
{ "type": "Feature", "properties": { "Pincode": "560104" }, "geometry": { "type": "Point", "coordinates": [ 77.538264400053777, 12.96247874225009 ] } },
{ "type": "Feature", "properties": { "Pincode": "560105" }, "geometry": { "type": "Point", "coordinates": [ 77.646976997037072, 12.79038030238873 ] } },
{ "type": "Feature", "properties": { "Pincode": "560107" }, "geometry": { "type": "Point", "coordinates": [ 77.483069831298948, 13.086973622361427 ] } },
{ "type": "Feature", "properties": { "Pincode": "560108" }, "geometry": { "type": "Point", "coordinates": [ 77.559756054328687, 12.852986058149432 ] } },
{ "type": "Feature", "properties": { "Pincode": "560109" }, "geometry": { "type": "Point", "coordinates": [ 77.526150118607788, 12.864644470621215 ] } },
{ "type": "Feature", "properties": { "Pincode": "560110" }, "geometry": { "type": "Point", "coordinates": [ 77.478543440681094, 12.950390757847073 ] } },
{ "type": "Feature", "properties": { "Pincode": "560111" }, "geometry": { "type": "Point", "coordinates": [ 77.563072912213016, 12.901550787033523 ] } },
{ "type": "Feature", "properties": { "Pincode": "560112" }, "geometry": { "type": "Point", "coordinates": [ 77.456925110377554, 12.973730501817945 ] } },
{ "type": "Feature", "properties": { "Pincode": "560113" }, "geometry": { "type": "Point", "coordinates": [ 77.66237344510138, 13.037232603660556 ] } },
{ "type": "Feature", "properties": { "Pincode": "560114" }, "geometry": { "type": "Point", "coordinates": [ 77.626813411068497, 12.873597826918555 ] } },
{ "type": "Feature", "properties": { "Pincode": "560115" }, "geometry": { "type": "Point", "coordinates": [ 77.764271326436329, 13.025305475705277 ] } },
{ "type": "Feature", "properties": { "Pincode": "560116" }, "geometry": { "type": "Point", "coordinates": [ 77.504260082641565, 12.782356935334917 ] } },
{ "type": "Feature", "properties": { "Pincode": "560117" }, "geometry": { "type": "Point", "coordinates": [ 77.828664271019946, 12.957822682316316 ] } },
{ "type": "Feature", "properties": { "Pincode": "560119" }, "geometry": { "type": "Point", "coordinates": [ 77.558824682458123, 13.154346080124476 ] } },
{ "type": "Feature", "properties": { "Pincode": "560300" }, "geometry": { "type": "Point", "coordinates": [ 77.707124733620219, 13.198625500437947 ] } },
{ "type": "Feature", "properties": { "Pincode": "561203" }, "geometry": { "type": "Point", "coordinates": [ 77.48039724496968, 13.330796880604314 ] } },
{ "type": "Feature", "properties": { "Pincode": "562106" }, "geometry": { "type": "Point", "coordinates": [ 77.682546530742144, 12.710176623675746 ] } },
{ "type": "Feature", "properties": { "Pincode": "562107" }, "geometry": { "type": "Point", "coordinates": [ 77.761552932767373, 12.782034089160875 ] } },
{ "type": "Feature", "properties": { "Pincode": "562109" }, "geometry": { "type": "Point", "coordinates": [ 77.410703204588387, 12.785475798673707 ] } },
{ "type": "Feature", "properties": { "Pincode": "562110" }, "geometry": { "type": "Point", "coordinates": [ 77.657542482611973, 13.24113104457804 ] } },
{ "type": "Feature", "properties": { "Pincode": "562112" }, "geometry": { "type": "Point", "coordinates": [ 77.489819067327758, 12.681455190684732 ] } },
{ "type": "Feature", "properties": { "Pincode": "562114" }, "geometry": { "type": "Point", "coordinates": [ 77.845984960689364, 13.068924618368776 ] } },
{ "type": "Feature", "properties": { "Pincode": "562120" }, "geometry": { "type": "Point", "coordinates": [ 77.217655488285189, 12.941746540950462 ] } },
{ "type": "Feature", "properties": { "Pincode": "562121" }, "geometry": { "type": "Point", "coordinates": [ 77.535444809645028, 12.574819469042424 ] } },
{ "type": "Feature", "properties": { "Pincode": "562123" }, "geometry": { "type": "Point", "coordinates": [ 77.366341445428404, 13.115830585353812 ] } },
{ "type": "Feature", "properties": { "Pincode": "562125" }, "geometry": { "type": "Point", "coordinates": [ 77.776802972185124, 12.872267856237704 ] } },
{ "type": "Feature", "properties": { "Pincode": "562127" }, "geometry": { "type": "Point", "coordinates": [ 77.252568509187469, 13.063338018099191 ] } },
{ "type": "Feature", "properties": { "Pincode": "562128" }, "geometry": { "type": "Point", "coordinates": [ 77.322862384004367, 12.815501989117836 ] } },
{ "type": "Feature", "properties": { "Pincode": "562130" }, "geometry": { "type": "Point", "coordinates": [ 77.388133902705349, 12.963670315032994 ] } },
{ "type": "Feature", "properties": { "Pincode": "562149" }, "geometry": { "type": "Point", "coordinates": [ 77.680205775201046, 13.146767081068136 ] } },
{ "type": "Feature", "properties": { "Pincode": "562157" }, "geometry": { "type": "Point", "coordinates": [ 77.617131804377266, 13.169556390039109 ] } },
{ "type": "Feature", "properties": { "Pincode": "562162" }, "geometry": { "type": "Point", "coordinates": [ 77.445135287202731, 13.069536349813001 ] } },
{ "type": "Feature", "properties": { "Pincode": "562163" }, "geometry": { "type": "Point", "coordinates": [ 77.549128071560077, 13.24786540734077 ] } },
{ "type": "Feature", "properties": { "Pincode": "562165" }, "geometry": { "type": "Point", "coordinates": [ 77.755194309330363, 13.143629926605916 ] } },
{ "type": "Feature", "properties": { "Pincode": "562166" }, "geometry": { "type": "Point", "coordinates": [ 77.71221068677572, 12.765478286482288 ] } },
{ "type": "Feature", "properties": { "Pincode": "563163" }, "geometry": { "type": "Point", "coordinates": [ 77.883773596247082, 12.904087346739612 ] } },
{ "type": "Feature", "properties": { "Pincode": "635103" }, "geometry": { "type": "Point", "coordinates": [ 77.868436380319181, 12.822230612962258 ] } },
{ "type": "Feature", "properties": { "Pincode": "635109" }, "geometry": { "type": "Point", "coordinates": [ 77.841333275699782, 12.739525391641596 ] } },
{ "type": "Feature", "properties": { "Pincode": "635110" }, "geometry": { "type": "Point", "coordinates": [ 77.800250212530671, 12.650033511024677 ] } },
{ "type": "Feature", "properties": { "Pincode": "635114" }, "geometry": { "type": "Point", "coordinates": [ 77.736351275355602, 12.640657080583122 ] } },
{ "type": "Feature", "properties": { "Pincode": "635118" }, "geometry": { "type": "Point", "coordinates": [ 77.645165707932009, 12.574126785136768 ] } },
{ "type": "Feature", "properties": { "Pincode": "635124" }, "geometry": { "type": "Point", "coordinates": [ 77.852600347331432, 12.855600567227613 ] } },
{ "type": "Feature", "properties": { "Pincode": "635126" }, "geometry": { "type": "Point", "coordinates": [ 77.80597734075026, 12.762830633066898 ] } }
]
}
