{
"type": "FeatureCollection",
"name": "point2",
"crs": { "type": "name", "properties": { "name": "urn:ogc:def:crs:OGC:1.3:CRS84" } },
"features": [
{ "type": "Feature", "properties": { "longitude": -119.53, "latitude": 37.34, "housing_median_age": 26.0, "total_rooms": 4047.0, "total_bedrooms": 702.0, "population": 571.0, "households": 199.0, "median_income": 2.3482, "median_house_value": 179500.0, "ocean_proximity": "INLAND" }, "geometry": { "type": "Point", "coordinates": [ -119.53, 37.34 ] } },
{ "type": "Feature", "properties": { "longitude": -119.51, "latitude": 37.32, "housing_median_age": 14.0, "total_rooms": 362.0, "total_bedrooms": 78.0, "population": 88.0, "households": 39.0, "median_income": 3.5893, "median_house_value": 214300.0, "ocean_proximity": "INLAND" }, "geometry": { "type": "Point", "coordinates": [ -119.51, 37.32 ] } },
{ "type": "Feature", "properties": { "longitude": -119.56, "latitude": 37.29, "housing_median_age": 14.0, "total_rooms": 2391.0, "total_bedrooms": 451.0, "population": 798.0, "households": 308.0, "median_income": 3.0924, "median_house_value": 114600.0, "ocean_proximity": "INLAND" }, "geometry": { "type": "Point", "coordinates": [ -119.56, 37.29 ] } },
{ "type": "Feature", "properties": { "longitude": -119.59, "latitude": 37.39, "housing_median_age": 19.0, "total_rooms": 3273.0, "total_bedrooms": 611.0, "population": 1164.0, "households": 481.0, "median_income": 3.5446, "median_house_value": 106500.0, "ocean_proximity": "INLAND" }, "geometry": { "type": "Point", "coordinates": [ -119.59, 37.39 ] } },
{ "type": "Feature", "properties": { "longitude": -119.66, "latitude": 37.39, "housing_median_age": 10.0, "total_rooms": 2106.0, "total_bedrooms": 410.0, "population": 1003.0, "households": 397.0, "median_income": 2.7813, "median_house_value": 124100.0, "ocean_proximity": "INLAND" }, "geometry": { "type": "Point", "coordinates": [ -119.66, 37.39 ] } },
{ "type": "Feature", "properties": { "longitude": -119.68, "latitude": 37.35, "housing_median_age": 13.0, "total_rooms": 2307.0, "total_bedrooms": 386.0, "population": 925.0, "households": 347.0, "median_income": 3.1326, "median_house_value": 119800.0, "ocean_proximity": "INLAND" }, "geometry": { "type": "Point", "coordinates": [ -119.68, 37.35 ] } },
{ "type": "Feature", "properties": { "longitude": -119.72, "latitude": 37.38, "housing_median_age": 16.0, "total_rooms": 2131.0, "total_bedrooms": 424.0, "population": 989.0, "households": 369.0, "median_income": 2.6071, "median_house_value": 103700.0, "ocean_proximity": "INLAND" }, "geometry": { "type": "Point", "coordinates": [ -119.72, 37.38 ] } },
{ "type": "Feature", "properties": { "longitude": -119.65, "latitude": 37.32, "housing_median_age": 11.0, "total_rooms": 2161.0, "total_bedrooms": 448.0, "population": 820.0, "households": 405.0, "median_income": 2.3565, "median_house_value": 122300.0, "ocean_proximity": "INLAND" }, "geometry": { "type": "Point", "coordinates": [ -119.65, 37.32 ] } },
{ "type": "Feature", "properties": { "longitude": -119.64, "latitude": 37.31, "housing_median_age": 15.0, "total_rooms": 2654.0, "total_bedrooms": 530.0, "population": 1267.0, "households": 489.0, "median_income": 2.8393, "median_house_value": 104400.0, "ocean_proximity": "INLAND" }, "geometry": { "type": "Point", "coordinates": [ -119.64, 37.31 ] } },
{ "type": "Feature", "properties": { "longitude": -119.6, "latitude": 37.29, "housing_median_age": 13.0, "total_rooms": 1722.0, "total_bedrooms": 325.0, "population": 712.0, "households": 269.0, "median_income": 2.625, "median_house_value": 137500.0, "ocean_proximity": "INLAND" }, "geometry": { "type": "Point", "coordinates": [ -119.6, 37.29 ] } },
{ "type": "Feature", "properties": { "longitude": -119.62, "latitude": 37.33, "housing_median_age": 7.0, "total_rooms": 3389.0, "total_bedrooms": 621.0, "population": 1268.0, "households": 474.0, "median_income": 3.0224, "median_house_value": 147800.0, "ocean_proximity": "INLAND" }, "geometry": { "type": "Point", "coordinates": [ -119.62, 37.33 ] } },
{ "type": "Feature", "properties": { "longitude": -119.67, "latitude": 37.27, "housing_median_age": 13.0, "total_rooms": 5087.0, "total_bedrooms": 981.0, "population": 2284.0, "households": 913.0, "median_income": 2.7413, "median_house_value": 123100.0, "ocean_proximity": "INLAND" }, "geometry": { "type": "Point", "coordinates": [ -119.67, 37.27 ] } }
]
}
