{
"type": "FeatureCollection",
"name": "polygon2",
"crs": { "type": "name", "properties": { "name": "urn:ogc:def:crs:OGC:1.3:CRS84" } },
"features": [
{ "type": "Feature", "properties": { "code": "770", "name": "Quận 3", "name_en": "District 3", "level": "Quận", "prov_code": "79", "prov_name": "Thành phố Hồ Chí Minh", "region": "Đông Nam Bộ", "pop_2019": 190375.0, "pop_dens": 38852.0, "area": 4.92 }, "geometry": { "type": "MultiPolygon", "coordinates": [ [ [ [ 106.686412674999985, 10.79228903 ], [ 106.68667366, 10.792081016 ], [ 106.686998669, 10.791821997 ], [ 106.687506644999985, 10.791416949999984 ], [ 106.687518684, 10.791407962999983 ], [ 106.687699622000025, 10.791263931 ], [ 106.687716621999982, 10.791249957 ], [ 106.687786664999976, 10.791193959999987 ], [ 106.687961659, 10.79105500999998 ], [ 106.688111672, 10.790934940999989 ], [ 106.688477606999982, 10.790643972 ], [ 106.688993631000017, 10.790232931999981 ], [ 106.689094663999981, 10.790150983999979 ], [ 106.689293643999974, 10.789988995999977 ], [ 106.689326603999973, 10.78996593 ], [ 106.689539661000026, 10.789794948 ], [ 106.689914631000022, 10.789499971999987 ], [ 106.689978649000011, 10.789447972 ], [ 106.690060653999979, 10.789382988999989 ], [ 106.690114595000011, 10.789339969000025 ], [ 106.690170642, 10.789294956 ], [ 106.690270625999972, 10.789214999000023 ], [ 106.690645657, 10.788915953000014 ], [ 106.690792661999978, 10.788798965000012 ], [ 106.690804625, 10.788789979 ], [ 106.690860593000025, 10.788743969 ], [ 106.691315598000017, 10.788381935000018 ], [ 106.691618633000019, 10.788140969999972 ], [ 106.691651587000024, 10.788114921999977 ], [ 106.691752624, 10.788034962999973 ], [ 106.691957177, 10.787872100000016 ], [ 106.691958608999983, 10.78787096100001 ], [ 106.691958645999989, 10.787870930999986 ], [ 106.692203631999973, 10.787673932000018 ], [ 106.692733636000014, 10.787250910000012 ], [ 106.692796601, 10.787199908 ], [ 106.69293262399998, 10.787092987 ], [ 106.692953615000022, 10.787076922999972 ], [ 106.693014624999989, 10.787027911999985 ], [ 106.69331757499998, 10.786783964999984 ], [ 106.69345862900002, 10.786670973000014 ], [ 106.693599608, 10.786556895 ], [ 106.693649633, 10.786515967000014 ], [ 106.693724569999972, 10.786458959000015 ], [ 106.693924626000012, 10.786304922 ], [ 106.694017609000014, 10.786229960000014 ], [ 106.694062594, 10.786192933999985 ], [ 106.694310635000022, 10.78599698 ], [ 106.694324629, 10.785985905000018 ], [ 106.694377590999977, 10.78594397400002 ], [ 106.694582595999975, 10.785780971 ], [ 106.694700633000025, 10.785686941999984 ], [ 106.694740578999983, 10.785654905 ], [ 106.694760595999981, 10.785640920999981 ], [ 106.694809568999972, 10.785600901 ], [ 106.694857572999979, 10.785564951000026 ], [ 106.695030595, 10.785424918 ], [ 106.695816598000022, 10.784797954999988 ], [ 106.695962625999982, 10.784682956999973 ], [ 106.696132573, 10.784548901 ], [ 106.696398561000024, 10.784328930000015 ], [ 106.696571580000011, 10.784187901999985 ], [ 106.696766567, 10.784029901 ], [ 106.696895579999989, 10.783924899999988 ], [ 106.697041576, 10.783800950999989 ], [ 106.697200581, 10.783664939 ], [ 106.697260599, 10.78361195399998 ], [ 106.697302571000023, 10.783576926000023 ], [ 106.697316562000026, 10.783564950000027 ], [ 106.697370562, 10.783516956000028 ], [ 106.697574605999989, 10.783337949999975 ], [ 106.697605592, 10.783309918999976 ], [ 106.697626576, 10.783291953 ], [ 106.697759548000022, 10.783174916 ], [ 106.697920576, 10.783034918 ], [ 106.698079163999978, 10.782895149000012 ], [ 106.698080548, 10.782893929000011 ], [ 106.698080511, 10.782893882999986 ], [ 106.697896593, 10.782673886 ], [ 106.696429543000022, 10.781115881 ], [ 106.696069589999979, 10.780732913 ], [ 106.695867554000017, 10.780516905000013 ], [ 106.695519570999977, 10.780150897 ], [ 106.694983546, 10.779580948999978 ], [ 106.694456581, 10.779014954 ], [ 106.693929545, 10.778448955999977 ], [ 106.69306459, 10.777524963000019 ], [ 106.693028590999972, 10.77746793 ], [ 106.692861557000015, 10.777277943 ], [ 106.692663544000027, 10.777068971 ], [ 106.692572514, 10.776970969999979 ], [ 106.692304580999973, 10.776685903999976 ], [ 106.692012514, 10.776375955999981 ], [ 106.691645526, 10.776006927000026 ], [ 106.691068513, 10.775371909 ], [ 106.691026519, 10.775326921999977 ], [ 106.690563528999974, 10.774835946 ], [ 106.690534545, 10.77480393899998 ], [ 106.689984546, 10.774220914000011 ], [ 106.689760576000026, 10.773981911000021 ], [ 106.689688545000024, 10.773905913000021 ], [ 106.689422517000025, 10.773624997000013 ], [ 106.68929456799998, 10.77348895199998 ], [ 106.689213538, 10.773404934999974 ], [ 106.688961515000017, 10.773140973000011 ], [ 106.688588510999978, 10.77275098299998 ], [ 106.688445554999987, 10.772589939999989 ], [ 106.688388506000024, 10.77252999000001 ], [ 106.688119525, 10.772243925 ], [ 106.687849556, 10.771956962 ], [ 106.68755454799998, 10.771643945999983 ], [ 106.687526553, 10.771613923000018 ], [ 106.687405566, 10.771484999 ], [ 106.68719650700001, 10.771261954000011 ], [ 106.68704956800002, 10.77110498899998 ], [ 106.687018549000015, 10.77107299 ], [ 106.686897562000013, 10.770943976000012 ], [ 106.686832563999985, 10.770874010999989 ], [ 106.68677952500002, 10.770817936000014 ], [ 106.686712562000025, 10.770745990000023 ], [ 106.686549507, 10.770571986999983 ], [ 106.686410518, 10.770424945 ], [ 106.686331522999978, 10.770339927 ], [ 106.686202521999974, 10.770202980000022 ], [ 106.686096519999978, 10.770091009 ], [ 106.685942544999989, 10.769927014000018 ], [ 106.685838510999986, 10.769816935 ], [ 106.685698538999986, 10.769668990000014 ], [ 106.685654503000023, 10.769621928 ], [ 106.685525499999983, 10.769484982999984 ], [ 106.68548253, 10.769440993999979 ], [ 106.685420557999976, 10.769374003999985 ], [ 106.68539453, 10.769345964000024 ], [ 106.685310545, 10.769256981000012 ], [ 106.685262503999979, 10.769206946999986 ], [ 106.685146512000017, 10.769082981 ], [ 106.685001543999988, 10.76892899500001 ], [ 106.684808531999977, 10.768723979000015 ], [ 106.684793549, 10.768706937 ], [ 106.684631556999989, 10.768535010999983 ], [ 106.684509518000027, 10.768405998999981 ], [ 106.684399503, 10.768287978999979 ], [ 106.68428948899998, 10.768169965000027 ], [ 106.684189544, 10.76806602 ], [ 106.684082489, 10.767952966 ], [ 106.683556511, 10.767399962000013 ], [ 106.683249531, 10.767066001999979 ], [ 106.682963515999973, 10.766756024000017 ], [ 106.682826525, 10.766620005999982 ], [ 106.682604501000014, 10.766396997000015 ], [ 106.682465506000028, 10.766246968000019 ], [ 106.682310514999983, 10.766069954999978 ], [ 106.682126546, 10.765885976999982 ], [ 106.681770486, 10.765531004000024 ], [ 106.681666549, 10.765426982 ], [ 106.681661395999981, 10.765428739000015 ], [ 106.681358511999974, 10.765531970999973 ], [ 106.681074549000016, 10.765618986 ], [ 106.680980522000027, 10.765648020000015 ], [ 106.680398503, 10.765825978 ], [ 106.680079519, 10.765928015999975 ], [ 106.679785548999973, 10.76602301600002 ], [ 106.679444564, 10.766131991 ], [ 106.679319501, 10.766171966 ], [ 106.678871535999974, 10.766315976999977 ], [ 106.678659521999975, 10.766380986 ], [ 106.678033538000022, 10.766559976999986 ], [ 106.677867561000028, 10.766612007999981 ], [ 106.677700529999981, 10.766664043 ], [ 106.67718752899998, 10.766823980000026 ], [ 106.677028560999986, 10.766874 ], [ 106.676987576999977, 10.766887051000026 ], [ 106.676423568000018, 10.767062056999976 ], [ 106.676413545, 10.76706507 ], [ 106.67639154699998, 10.767072007000024 ], [ 106.676364573, 10.767080044000011 ], [ 106.676325545999987, 10.767092005 ], [ 106.676056577, 10.76717598800002 ], [ 106.676017549999983, 10.767188036999983 ], [ 106.676000524000017, 10.767194056999983 ], [ 106.674880565000024, 10.767542048999985 ], [ 106.67481455799998, 10.767560057000026 ], [ 106.674530533, 10.767653033999977 ], [ 106.674393565, 10.767697021 ], [ 106.674472539000021, 10.767801029999987 ], [ 106.674738541000011, 10.768153026 ], [ 106.67554959, 10.769306072 ], [ 106.675803589999987, 10.769604034 ], [ 106.676295598000024, 10.770125056999973 ], [ 106.676347583, 10.77018204 ], [ 106.676434589, 10.770274003 ], [ 106.676728588, 10.770581065999977 ], [ 106.676982547000023, 10.770865013 ], [ 106.677110568999979, 10.771003052000026 ], [ 106.677143557000022, 10.771038035 ], [ 106.677305558, 10.771214035000014 ], [ 106.67736155, 10.771274985 ], [ 106.677407556, 10.771325027999978 ], [ 106.67755458900001, 10.77146499700001 ], [ 106.677975589000027, 10.771822039000028 ], [ 106.678064584000026, 10.771897989000024 ], [ 106.678229551000015, 10.772032029 ], [ 106.678611547, 10.772358989999987 ], [ 106.678830596000012, 10.772546028000022 ], [ 106.678965565, 10.772660987999984 ], [ 106.678999589, 10.77269 ], [ 106.679032559, 10.772719014000018 ], [ 106.67908057, 10.772759012 ], [ 106.679136594999989, 10.772806039999978 ], [ 106.679682592, 10.773271018 ], [ 106.679712537, 10.773296968000011 ], [ 106.680006588000026, 10.773545985 ], [ 106.680081599, 10.773611035999977 ], [ 106.680230557000016, 10.773737980000021 ], [ 106.680380581, 10.773868988 ], [ 106.680723555999975, 10.774158994 ], [ 106.680931557, 10.774333045999981 ], [ 106.680999606, 10.774389982 ], [ 106.681298577, 10.774644045 ], [ 106.681886543000019, 10.775143973000013 ], [ 106.682364571999983, 10.775551016 ], [ 106.682402603000014, 10.775582998 ], [ 106.682532579999986, 10.775693 ], [ 106.682685568000011, 10.775829965000014 ], [ 106.682778553, 10.775903009 ], [ 106.68256059700002, 10.776243975 ], [ 106.682471568999972, 10.77637895700002 ], [ 106.682185564, 10.776835041000027 ], [ 106.681977625, 10.777171999000018 ], [ 106.681900556000016, 10.777297 ], [ 106.68183362100001, 10.777405965000014 ], [ 106.681631606999986, 10.777806012999974 ], [ 106.681617609999989, 10.777841044000013 ], [ 106.681426583000018, 10.77793899400001 ], [ 106.680995575, 10.778158001 ], [ 106.680772618, 10.778272045999984 ], [ 106.680590565999978, 10.778371051000022 ], [ 106.680407605000028, 10.77846897500001 ], [ 106.680324634999977, 10.778513977999978 ], [ 106.67986061, 10.778763008999988 ], [ 106.679606577000015, 10.778900023 ], [ 106.679220631000021, 10.779108044 ], [ 106.679041586999972, 10.77920405499998 ], [ 106.678633578000017, 10.779422991 ], [ 106.678092602, 10.779714021000018 ], [ 106.677647622, 10.779953044000024 ], [ 106.677125623999984, 10.780235068000025 ], [ 106.676650600000016, 10.780490002000022 ], [ 106.676203660999988, 10.780730028 ], [ 106.676008652, 10.780835035999985 ], [ 106.675288622999972, 10.781222072999981 ], [ 106.674655637, 10.781563006999988 ], [ 106.67434264100001, 10.78173102300002 ], [ 106.674259668, 10.781776025 ], [ 106.674093646000017, 10.781865032999974 ], [ 106.673928602999979, 10.781954037999981 ], [ 106.673517651999987, 10.782175056000028 ], [ 106.673280625000018, 10.782302067999979 ], [ 106.673076654999988, 10.782412075000025 ], [ 106.672942627, 10.782483087 ], [ 106.672797612000011, 10.78256109199998 ], [ 106.672499677000019, 10.7827221 ], [ 106.672139623000021, 10.782916022 ], [ 106.671950633, 10.78301703 ], [ 106.671478674000014, 10.783266074999972 ], [ 106.671068686000012, 10.783483108999974 ], [ 106.67065864, 10.783706108 ], [ 106.670300680000025, 10.783895050000012 ], [ 106.669958683, 10.784076073999984 ], [ 106.669798679999985, 10.784161085999983 ], [ 106.669606671, 10.784262103 ], [ 106.669105648000027, 10.784528046 ], [ 106.669040666, 10.784562054 ], [ 106.66871968800001, 10.784736055999986 ], [ 106.668327702, 10.784947064999983 ], [ 106.668004689999975, 10.785122065 ], [ 106.667836710000017, 10.785214062000023 ], [ 106.667236679999974, 10.785536079999986 ], [ 106.667069665999975, 10.785623097999974 ], [ 106.666886697, 10.785721104 ], [ 106.666506676999973, 10.78592412 ], [ 106.666243658999974, 10.786062054000013 ], [ 106.665923712, 10.786229088000027 ], [ 106.665465682999979, 10.786474103999979 ], [ 106.665308691, 10.786558108 ], [ 106.664844712, 10.786806125 ], [ 106.664629661999982, 10.786920136999981 ], [ 106.664579661, 10.786946141999977 ], [ 106.664529666000021, 10.786973143000012 ], [ 106.664449704, 10.787017139 ], [ 106.664329682000016, 10.787082137000027 ], [ 106.664311688999987, 10.787092136000012 ], [ 106.664293693, 10.787102135 ], [ 106.664324661000023, 10.787142094999979 ], [ 106.664347685, 10.787174123999989 ], [ 106.664410701, 10.787313082000026 ], [ 106.664434713999981, 10.787348091000013 ], [ 106.664441688000011, 10.787359101 ], [ 106.664461696999979, 10.787392133000026 ], [ 106.664521729, 10.787491137000018 ], [ 106.66458071, 10.787592135000011 ], [ 106.664721713, 10.787832123999976 ], [ 106.664777734999973, 10.787927072 ], [ 106.66489773, 10.788128066000013 ], [ 106.66499567, 10.78829314 ], [ 106.665064729999983, 10.788410109999973 ], [ 106.665139716999988, 10.788541076 ], [ 106.665153700000019, 10.788576115000012 ], [ 106.665190693, 10.788639112999988 ], [ 106.665210707000028, 10.788673140000014 ], [ 106.665209684999979, 10.788684081999975 ], [ 106.6651827, 10.788789130999987 ], [ 106.665158702999975, 10.788884134999989 ], [ 106.66514272, 10.788936078 ], [ 106.665130716000021, 10.788981138999986 ], [ 106.665099671, 10.789115131000017 ], [ 106.665013714999986, 10.789472062000016 ], [ 106.665009694, 10.78948907 ], [ 106.665001711, 10.789517122 ], [ 106.664999707, 10.789528067999981 ], [ 106.664990703, 10.789568148 ], [ 106.664976689000014, 10.789623071 ], [ 106.664960743, 10.789687128000025 ], [ 106.664955679, 10.789708119000011 ], [ 106.664947687, 10.789734090000024 ], [ 106.66493568300001, 10.789755102000015 ], [ 106.664929684000015, 10.78976615 ], [ 106.664922712000021, 10.78978009399998 ], [ 106.664895722999972, 10.78983415 ], [ 106.664874691000023, 10.789887103000012 ], [ 106.664845693000018, 10.789949121 ], [ 106.664787693, 10.79007306699998 ], [ 106.664771734, 10.790108104000012 ], [ 106.664800711999987, 10.79011407500002 ], [ 106.664849676000017, 10.790119084000025 ], [ 106.664870727, 10.790122096 ], [ 106.664885740999978, 10.790124131000027 ], [ 106.664918715, 10.790129096999976 ], [ 106.665061164, 10.790148208 ], [ 106.665067728, 10.79014908900001 ], [ 106.665160679, 10.790086068 ], [ 106.665279683, 10.790008143000023 ], [ 106.665398681, 10.789929132 ], [ 106.665541693000023, 10.789835132 ], [ 106.665606707, 10.789786117 ], [ 106.665870735999988, 10.789582091 ], [ 106.666134688, 10.789378063000015 ], [ 106.666229881999982, 10.789359467 ], [ 106.666236669, 10.78935814099998 ], [ 106.666241699000011, 10.789375124 ], [ 106.666254677999973, 10.789427072000024 ], [ 106.666257730999973, 10.789439088999984 ], [ 106.666313553, 10.789453735 ], [ 106.666318717000024, 10.789455090999979 ], [ 106.666351706, 10.789440076 ], [ 106.666362701000025, 10.789435070000025 ], [ 106.666387138, 10.789431147000016 ], [ 106.666393684000013, 10.789430095 ], [ 106.666405670000017, 10.789453116 ], [ 106.666438674, 10.789468118 ], [ 106.66649772400001, 10.789492081999981 ], [ 106.666522722000025, 10.789503129000025 ], [ 106.666589698999985, 10.789530054000011 ], [ 106.666689854000026, 10.789568794 ], [ 106.666695711999978, 10.789571057999979 ], [ 106.666710033000015, 10.789552324999988 ], [ 106.666711713999973, 10.789550126999984 ], [ 106.666857584000013, 10.789617304999979 ], [ 106.666863669, 10.789620107000019 ], [ 106.666879709999989, 10.789588052999989 ], [ 106.666910738000013, 10.789523137 ], [ 106.666982669, 10.789442095000027 ], [ 106.667113694000022, 10.78935012 ], [ 106.667335723, 10.789249101 ], [ 106.667552732, 10.789134089000015 ], [ 106.667828666999981, 10.789002082000025 ], [ 106.667915726, 10.788961050000012 ], [ 106.668070664000027, 10.788895132 ], [ 106.668101696, 10.788882108999985 ], [ 106.668264694000015, 10.788813095000023 ], [ 106.668292715, 10.78880207200001 ], [ 106.669161691999989, 10.78847907 ], [ 106.669874689999972, 10.788227055 ], [ 106.670573709, 10.787967031 ], [ 106.670768189, 10.787902221000024 ], [ 106.670774646999973, 10.787900069999978 ], [ 106.670797710999977, 10.787970072 ], [ 106.670865704, 10.788380067 ], [ 106.670958671999983, 10.788942062999979 ], [ 106.670991693000019, 10.789087078000023 ], [ 106.671039726, 10.789282042000025 ], [ 106.67104214699998, 10.789289408 ], [ 106.671042694999983, 10.789291076999973 ], [ 106.671221711999976, 10.789257092000014 ], [ 106.671257420000018, 10.789258710000013 ], [ 106.671264705999988, 10.78925904099998 ], [ 106.671270355, 10.789295792000019 ], [ 106.671270708, 10.789298083 ], [ 106.671274971, 10.789296913999976 ], [ 106.671281709000027, 10.789295064999976 ], [ 106.67128541, 10.789309967 ], [ 106.671285679999983, 10.78931105700002 ], [ 106.671325715000023, 10.78930705 ], [ 106.671322675999988, 10.789274089 ], [ 106.67132267300002, 10.789274058 ], [ 106.671340703, 10.78927509 ], [ 106.671338675000015, 10.789302 ], [ 106.67133867299998, 10.789302039 ], [ 106.671378171000015, 10.789303915 ], [ 106.671381667999981, 10.789304081000012 ], [ 106.671410734, 10.789305771999977 ], [ 106.671415688000025, 10.789306059000012 ], [ 106.671433159, 10.789306796 ], [ 106.671439673, 10.789307072999975 ], [ 106.671467666000012, 10.789311055999974 ], [ 106.67150267300002, 10.789315112999986 ], [ 106.671560055999976, 10.789319955 ], [ 106.671561665000013, 10.789320090999979 ], [ 106.671584672, 10.789321105 ], [ 106.671586667999975, 10.789308080000012 ], [ 106.67162442, 10.78930713699998 ], [ 106.671627693, 10.789307055 ], [ 106.671661718999985, 10.789311022999982 ], [ 106.671683674, 10.789313037 ], [ 106.671681684000021, 10.789329045999978 ], [ 106.671746657000028, 10.78934105899998 ], [ 106.671758655000019, 10.789343101999975 ], [ 106.671794714999976, 10.789346067999986 ], [ 106.67179468400002, 10.78936108 ], [ 106.671806399, 10.789361714 ], [ 106.671813693999979, 10.789362106 ], [ 106.671854653000025, 10.789364063 ], [ 106.671886428999983, 10.789365649999979 ], [ 106.671893723999972, 10.789366025999982 ], [ 106.67189169300002, 10.789392071 ], [ 106.671926717000019, 10.789402091 ], [ 106.671940698000014, 10.789411090999977 ], [ 106.671967718000019, 10.789418064000017 ], [ 106.672011708000014, 10.789425075999986 ], [ 106.672001653, 10.789491105000025 ], [ 106.671998713999983, 10.789516065999976 ], [ 106.672093696, 10.789526092000017 ], [ 106.672131718, 10.789530048000017 ], [ 106.672149674000025, 10.789532074000022 ], [ 106.67214872400001, 10.789542021999978 ], [ 106.672183685999983, 10.78955602000002 ], [ 106.67218567499998, 10.789590100999987 ], [ 106.672189656, 10.78963403 ], [ 106.672167721999983, 10.789762027999984 ], [ 106.672166772000026, 10.789778125999987 ], [ 106.672166719000018, 10.789779028 ], [ 106.672279673, 10.789771098000017 ], [ 106.672372149000012, 10.789753578999978 ], [ 106.672374719, 10.789753094 ], [ 106.672396945, 10.789757203000022 ], [ 106.672401659, 10.789758075 ], [ 106.672465654, 10.789746040000011 ], [ 106.672543565000012, 10.789743324000028 ], [ 106.672550718000025, 10.789743075999979 ], [ 106.672556260000022, 10.789768179000021 ], [ 106.672556682, 10.789770089 ], [ 106.672594907000018, 10.789761605000024 ], [ 106.672601676999989, 10.789760101000013 ], [ 106.672609132, 10.789787097999977 ], [ 106.672609685, 10.789789101 ], [ 106.672630711000011, 10.789784065 ], [ 106.672655653, 10.789777028 ], [ 106.672665687, 10.789777088999983 ], [ 106.672693664, 10.789775486999986 ], [ 106.672700674, 10.789775083999984 ], [ 106.672709725, 10.789800104 ], [ 106.672732372999974, 10.789805754999975 ], [ 106.672737649999988, 10.78980707300002 ], [ 106.672748738, 10.789801962000013 ], [ 106.672750682000014, 10.789801065 ], [ 106.672775664000028, 10.789807049999979 ], [ 106.672809710000024, 10.789818068999978 ], [ 106.672834691999981, 10.78982405 ], [ 106.672829698999976, 10.789844046999974 ], [ 106.672865703000014, 10.789853070999982 ], [ 106.67287868, 10.789855021999983 ], [ 106.672909695999977, 10.789861077000012 ], [ 106.672921697, 10.789864024999986 ], [ 106.672916698, 10.789882033000026 ], [ 106.672926872, 10.789885035 ], [ 106.672933683, 10.789887045 ], [ 106.672939655, 10.789867045999983 ], [ 106.672962381, 10.789866244999985 ], [ 106.672967708999977, 10.789866056999983 ], [ 106.672995389, 10.78987414300002 ], [ 106.672998657, 10.789875097999982 ], [ 106.673034692999977, 10.789870017 ], [ 106.673036685, 10.789860131000012 ], [ 106.673036700000011, 10.789860067 ], [ 106.673061973000017, 10.789861632999987 ], [ 106.673068683, 10.789862051 ], [ 106.673104493999972, 10.789860245 ], [ 106.673108722999984, 10.789860033000025 ], [ 106.673139664000018, 10.789866087 ], [ 106.673179651999988, 10.789871031000018 ], [ 106.673232687, 10.78987702 ], [ 106.673266658999978, 10.789887045 ], [ 106.67329672, 10.789902055000027 ], [ 106.673307663, 10.789904101 ], [ 106.673339659000021, 10.789910065000015 ], [ 106.673331693000023, 10.789944084000012 ], [ 106.673358709000013, 10.789950058999978 ], [ 106.673408677, 10.789963021 ], [ 106.673419308, 10.789993910000021 ], [ 106.673419712, 10.789995084 ], [ 106.673463664, 10.789990069999988 ], [ 106.673501677, 10.789990046000014 ], [ 106.673508399000013, 10.78998087399998 ], [ 106.673509712, 10.789979083999981 ], [ 106.673542707000024, 10.7899911 ], [ 106.673625886000025, 10.790010714 ], [ 106.673631691000026, 10.790012081999976 ], [ 106.67366669, 10.789989011999978 ], [ 106.673693664999973, 10.789981066 ], [ 106.673727655999983, 10.789973099 ], [ 106.673758701999986, 10.789964054999984 ], [ 106.673770707000017, 10.789944038999977 ], [ 106.673776713, 10.789935070000013 ], [ 106.673779894, 10.789930270000013 ], [ 106.673782717999984, 10.789926009 ], [ 106.673836664000021, 10.789982086 ], [ 106.673921695, 10.790092044 ], [ 106.673904693999987, 10.790106018000017 ], [ 106.673887691, 10.790120082999977 ], [ 106.67392571900001, 10.790150075999975 ], [ 106.67393970400002, 10.790161066 ], [ 106.673942698000019, 10.790178054000023 ], [ 106.674029186999974, 10.790334415000018 ], [ 106.674030669999979, 10.790337098 ], [ 106.674063663000027, 10.79032407 ], [ 106.674082721, 10.790316056 ], [ 106.674091684000018, 10.790312051 ], [ 106.67409268199998, 10.790293061999989 ], [ 106.674093689000017, 10.790277054 ], [ 106.6741197, 10.790275080000015 ], [ 106.674152649, 10.790247043000022 ], [ 106.674196656999982, 10.790210023999975 ], [ 106.674231707, 10.790179089 ], [ 106.674247654, 10.790165027 ], [ 106.674254236000024, 10.79015911800002 ], [ 106.674257657999988, 10.790156046999982 ], [ 106.674310405000028, 10.790203124000016 ], [ 106.674313695000023, 10.790206059000013 ], [ 106.674346663999984, 10.790185076 ], [ 106.67438066699998, 10.790132082000014 ], [ 106.674438709000015, 10.790122054999983 ], [ 106.674441667, 10.790078014000017 ], [ 106.674494649999986, 10.790066012000011 ], [ 106.674543664, 10.790063063 ], [ 106.674540649, 10.790039021999974 ], [ 106.674605706000023, 10.790029064 ], [ 106.674601715999984, 10.790007015000015 ], [ 106.674652676999983, 10.790000082 ], [ 106.674666463, 10.789998738 ], [ 106.674673713, 10.78999803 ], [ 106.674678699000026, 10.790124049999974 ], [ 106.67479171399998, 10.79013600899998 ], [ 106.674837592000017, 10.790138613000011 ], [ 106.674844667, 10.790139013999976 ], [ 106.674858691999987, 10.790138069000022 ], [ 106.674866388, 10.790136002999986 ], [ 106.674873688, 10.790134045 ], [ 106.674873651999974, 10.790147064 ], [ 106.674871671, 10.790165063000018 ], [ 106.674867722999977, 10.79020729299998 ], [ 106.674867655000014, 10.790208020000023 ], [ 106.674909657, 10.790206087 ], [ 106.674946911, 10.790207011 ], [ 106.674948654, 10.790207054 ], [ 106.674980711999979, 10.790209038 ], [ 106.67496970000002, 10.790283027999976 ], [ 106.674972595999975, 10.790283623999983 ], [ 106.674979661, 10.790285078000011 ], [ 106.674985504, 10.790257874000019 ], [ 106.674985683999978, 10.790257032 ], [ 106.675013550000017, 10.790261842 ], [ 106.675020696999979, 10.790263074999984 ], [ 106.675024458999985, 10.79024139 ], [ 106.675024699, 10.790240009 ], [ 106.675060702, 10.79024903200002 ], [ 106.675053701000024, 10.790278076 ], [ 106.675077047, 10.790283239000019 ], [ 106.675080719999983, 10.790284053 ], [ 106.675112997999975, 10.790280258 ], [ 106.675114646, 10.790280063000012 ], [ 106.675143692, 10.790283051000017 ], [ 106.675174702, 10.790287025999987 ], [ 106.675173701, 10.790305021 ], [ 106.675185702000022, 10.790308058999983 ], [ 106.6752287, 10.790316646 ], [ 106.67523565800002, 10.79031803700002 ], [ 106.675242685, 10.790297039 ], [ 106.675251533, 10.79022409800001 ], [ 106.675251660000015, 10.790223056 ], [ 106.675319585000011, 10.790236607 ], [ 106.675326671999983, 10.790238021999983 ], [ 106.675328512000021, 10.79022888999998 ], [ 106.675328678000028, 10.790228069000023 ], [ 106.675381647999984, 10.79023704399998 ], [ 106.675492647999988, 10.790256059 ], [ 106.67550171900001, 10.790262090999988 ], [ 106.675522655, 10.790277034999974 ], [ 106.6755417, 10.790290088 ], [ 106.675561720000019, 10.790301058000011 ], [ 106.675581661000024, 10.790311034000013 ], [ 106.675606647, 10.790318012 ], [ 106.675674647, 10.790334083 ], [ 106.675721663, 10.790344068000024 ], [ 106.675768678, 10.790353058999983 ], [ 106.675790783000025, 10.790357474000018 ], [ 106.675793656999986, 10.790358047999973 ], [ 106.675816656999984, 10.790357073999985 ], [ 106.675838666, 10.79035303 ], [ 106.675855715000012, 10.790344939000022 ], [ 106.675857644000018, 10.790344022999989 ], [ 106.675886703, 10.790351079 ], [ 106.675975713000014, 10.790381009999976 ], [ 106.676014698000017, 10.790403044000016 ], [ 106.676015705999987, 10.790412081999989 ], [ 106.676036472000021, 10.790422047 ], [ 106.676042669000026, 10.790425022000022 ], [ 106.67605218, 10.790402571000016 ], [ 106.676053677000027, 10.790399039000022 ], [ 106.676090709, 10.790424063999978 ], [ 106.676084651, 10.790440085 ], [ 106.676109645999986, 10.79045104 ], [ 106.676124674999983, 10.790457052000022 ], [ 106.676143700000011, 10.790464048 ], [ 106.676191671000026, 10.790490033000026 ], [ 106.676203677999979, 10.790495060000012 ], [ 106.676235667000014, 10.790499033 ], [ 106.676259672000015, 10.790506014000016 ], [ 106.67626868100001, 10.790517017000013 ], [ 106.676277916, 10.790526909 ], [ 106.676283662, 10.790533064999977 ], [ 106.676287689999981, 10.790518045 ], [ 106.676291605000017, 10.790507135999974 ], [ 106.676291653000021, 10.790507003000016 ], [ 106.676389644999972, 10.790514033000022 ], [ 106.676405768999985, 10.790515654999979 ], [ 106.676409712, 10.790516051999987 ], [ 106.676422683999988, 10.790516014 ], [ 106.676425371, 10.79051576400002 ], [ 106.676432712, 10.790515079999977 ], [ 106.676430685000014, 10.790561629000024 ], [ 106.676430669000013, 10.790562008999984 ], [ 106.676452322999978, 10.790562029 ], [ 106.676453671, 10.790562030999979 ], [ 106.676469662999978, 10.790563067999983 ], [ 106.676467697000021, 10.790576803000022 ], [ 106.676467670000022, 10.790576997000016 ], [ 106.676544679000017, 10.790579026999978 ], [ 106.676584655, 10.790580083 ], [ 106.676595624000015, 10.790563153 ], [ 106.67659568900001, 10.790563051999982 ], [ 106.676633367000022, 10.790565590000028 ], [ 106.676640647999989, 10.790566081 ], [ 106.676644698000018, 10.790534063999985 ], [ 106.676651671, 10.790496070000017 ], [ 106.676661647, 10.790436138000018 ], [ 106.676661669, 10.790436006999983 ], [ 106.676689656, 10.790438001999973 ], [ 106.67670565100002, 10.790440035000017 ], [ 106.676716664000026, 10.790440995999973 ], [ 106.676756652999984, 10.790446029 ], [ 106.676754679999988, 10.790467010999976 ], [ 106.676807659000019, 10.790478063000023 ], [ 106.676806709, 10.790488010999979 ], [ 106.676807683, 10.790536017000022 ], [ 106.676807664000023, 10.790554009 ], [ 106.676844664999976, 10.790568996 ], [ 106.676840673000015, 10.790595047000011 ], [ 106.676882714999977, 10.790606041 ], [ 106.676917659000026, 10.790614074000018 ], [ 106.676929659, 10.790617022999982 ], [ 106.676928707, 10.790626066000016 ], [ 106.676944715, 10.790632076 ], [ 106.676990675000013, 10.790642064 ], [ 106.677022674, 10.790649020999979 ], [ 106.677041703999976, 10.790657011 ], [ 106.677139666000016, 10.790679049 ], [ 106.67721271, 10.79069203 ], [ 106.677267222000012, 10.790700604 ], [ 106.67726968, 10.790700991 ], [ 106.677325105000023, 10.790700991999984 ], [ 106.677329714, 10.790700991999984 ], [ 106.6773857, 10.790709052000011 ], [ 106.677423660999978, 10.790717073999986 ], [ 106.677477646999989, 10.790737076000028 ], [ 106.67752864900001, 10.790768024999977 ], [ 106.677570715, 10.790787065000018 ], [ 106.677584713999977, 10.790802031999988 ], [ 106.677605715000027, 10.790812999000025 ], [ 106.677628659999982, 10.790819078000027 ], [ 106.67764964700001, 10.790825073 ], [ 106.677669649999984, 10.790831070000024 ], [ 106.677690711000025, 10.790837065 ], [ 106.677705655000011, 10.790840999000011 ], [ 106.677719696, 10.790845024000021 ], [ 106.677711655, 10.790879044 ], [ 106.677739651000024, 10.790884022 ], [ 106.677768355000012, 10.790894224999988 ], [ 106.677770682000016, 10.790895051 ], [ 106.677861689, 10.790887001999977 ], [ 106.67788164000001, 10.790747478000014 ], [ 106.677881698000022, 10.790747075000013 ], [ 106.67819268, 10.790781042 ], [ 106.678362662999973, 10.790802048999979 ], [ 106.678427699999986, 10.790809991 ], [ 106.678425684, 10.790866053 ], [ 106.678503692999982, 10.790874046999988 ], [ 106.678525649, 10.79087705500001 ], [ 106.678545690000021, 10.790894986000012 ], [ 106.678627479999989, 10.790911530000017 ], [ 106.678634664000015, 10.790912983 ], [ 106.678635690000021, 10.790903034 ], [ 106.678637655999978, 10.790880062999975 ], [ 106.678638622, 10.790870614000028 ], [ 106.678638681999985, 10.790870025 ], [ 106.678690473000017, 10.79087701200001 ], [ 106.678697682, 10.790877985 ], [ 106.678702579, 10.790843941 ], [ 106.678702703999988, 10.79084307 ], [ 106.678736661000016, 10.790849025999989 ], [ 106.678735710000012, 10.790859065 ], [ 106.67878067800001, 10.79086498800001 ], [ 106.678813656999978, 10.790871036 ], [ 106.678820711000014, 10.790884036000023 ], [ 106.678832704, 10.79088499400001 ], [ 106.678841493999983, 10.790886109999974 ], [ 106.678848699000014, 10.790887025000018 ], [ 106.67885166100001, 10.790869024000017 ], [ 106.678870125, 10.790869768 ], [ 106.678876704, 10.790870032999976 ], [ 106.678911642, 10.790875987 ], [ 106.678933685, 10.790883063000024 ], [ 106.678971655, 10.790894068999989 ], [ 106.678986682000016, 10.790899991 ], [ 106.678989649000016, 10.790909022999983 ], [ 106.679081683999982, 10.790941025 ], [ 106.679104677, 10.790962020999984 ], [ 106.679120694, 10.790971013999979 ], [ 106.679172302999973, 10.790997722999975 ], [ 106.679178708, 10.791001038 ], [ 106.67918168, 10.790991248000012 ], [ 106.679182664, 10.79098800700001 ], [ 106.679222708999987, 10.791011031999972 ], [ 106.679281171000014, 10.791030778999982 ], [ 106.679287712000018, 10.791032987999984 ], [ 106.679292378000014, 10.791021699999988 ], [ 106.679292652000015, 10.791021038999986 ], [ 106.679298628000026, 10.791021931999978 ], [ 106.67930570599998, 10.791022989 ], [ 106.679317659, 10.790986065000027 ], [ 106.679332219, 10.790952978 ], [ 106.679332639, 10.790952025000024 ], [ 106.679368711, 10.790959058999988 ], [ 106.679429637999988, 10.790980032999983 ], [ 106.679425703999982, 10.791001019000021 ], [ 106.679482688, 10.791014049000012 ], [ 106.679491677999977, 10.791018994000012 ], [ 106.679506091, 10.791022035000026 ], [ 106.679510694999976, 10.791023005999989 ], [ 106.679522551, 10.791020433000028 ], [ 106.679524639000022, 10.791019979999987 ], [ 106.679569661000016, 10.791027249000024 ], [ 106.679574667, 10.791028058 ], [ 106.679581397, 10.791026821 ], [ 106.679585671999973, 10.791026036 ], [ 106.67961550299998, 10.791037629000016 ], [ 106.679621688, 10.791040032000012 ], [ 106.679659640000011, 10.790971023 ], [ 106.67966617899998, 10.790960864 ], [ 106.67966669499998, 10.790960061000021 ], [ 106.679700652, 10.790966018 ], [ 106.679761639999981, 10.790982019000012 ], [ 106.679792647, 10.790984998999988 ], [ 106.679778673999976, 10.791052036999986 ], [ 106.679824704999987, 10.791084988000023 ], [ 106.679907653999976, 10.791130036000027 ], [ 106.679936688999987, 10.791153996999981 ], [ 106.679987713, 10.791167044000019 ], [ 106.680003639, 10.791170975 ], [ 106.680019658, 10.791181053 ], [ 106.680120924, 10.791230633999987 ], [ 106.680121703, 10.791231015 ], [ 106.680162461, 10.791231050000022 ], [ 106.680168687999981, 10.791231056000015 ], [ 106.680193681, 10.791240022000011 ], [ 106.680210316, 10.791242292 ], [ 106.680215713, 10.791243028999986 ], [ 106.680234027999973, 10.791239653 ], [ 106.680237644999977, 10.791238985 ], [ 106.680247400999974, 10.791241781999986 ], [ 106.680251687, 10.791243012 ], [ 106.680283713999984, 10.791234056 ], [ 106.680355420000012, 10.791237615999989 ], [ 106.680362689, 10.79123797699998 ], [ 106.68038236000001, 10.79125940900002 ], [ 106.680385694, 10.791263042000026 ], [ 106.680399349000027, 10.791251854 ], [ 106.680401641, 10.791249973999982 ], [ 106.680421654999975, 10.791259044000014 ], [ 106.680498684999975, 10.791277384000011 ], [ 106.680505659, 10.79127904500001 ], [ 106.68050933, 10.791264434000027 ], [ 106.680509683000025, 10.791263029999982 ], [ 106.680536704000019, 10.79127 ], [ 106.680543591, 10.791271497000025 ], [ 106.680550665999988, 10.791273034000028 ], [ 106.680555383000012, 10.791248323 ], [ 106.680555638999977, 10.791246979999983 ], [ 106.680609515000015, 10.79126021899998 ], [ 106.680616699999973, 10.791261985 ], [ 106.680617481000013, 10.791252101999987 ], [ 106.680617644, 10.791250048 ], [ 106.680646708999973, 10.791259996 ], [ 106.680713656000023, 10.791275977999987 ], [ 106.680728676, 10.791280001000018 ], [ 106.680791641999974, 10.791301058999977 ], [ 106.680854684, 10.79132302 ], [ 106.680906645, 10.791347003999988 ], [ 106.68093269000002, 10.791354973000011 ], [ 106.68105363, 10.791372040999988 ], [ 106.681060657999979, 10.791373032000024 ], [ 106.68107166599998, 10.791348045 ], [ 106.681099675999974, 10.791284040999983 ], [ 106.681103528, 10.791260866000016 ], [ 106.681103676000021, 10.791259979000017 ], [ 106.681219154000019, 10.791280598000014 ], [ 106.681221696000023, 10.79128105 ], [ 106.681436706, 10.791278052999985 ], [ 106.681538667999973, 10.791276026 ], [ 106.681641797999987, 10.791275971 ], [ 106.681648704, 10.791275966 ], [ 106.681804700999976, 10.791432996000026 ], [ 106.681956673, 10.791579997999975 ], [ 106.68199570500002, 10.79161803400001 ], [ 106.68221066000001, 10.791791972999988 ], [ 106.682345687, 10.791874021000012 ], [ 106.682538668, 10.791990974999976 ], [ 106.682734649999986, 10.792126997000025 ], [ 106.682979642000021, 10.792234029999975 ], [ 106.683270685000025, 10.792331972999989 ], [ 106.683576709000022, 10.792420013000026 ], [ 106.683927569, 10.792447478999975 ], [ 106.68393368, 10.792447959000015 ], [ 106.684479663, 10.792405985000016 ], [ 106.684602676, 10.792383013 ], [ 106.684887675000027, 10.792330978999985 ], [ 106.685375657, 10.792239000999984 ], [ 106.685578797, 10.792226114000016 ], [ 106.685580683000012, 10.792225995000024 ], [ 106.685793653000019, 10.792245964000017 ], [ 106.685830642999974, 10.792256974999987 ], [ 106.685868688000028, 10.792267978999973 ], [ 106.685931631000017, 10.792305941999984 ], [ 106.686121414000013, 10.792515397999978 ], [ 106.686124638000024, 10.792518955 ], [ 106.686124681000024, 10.792519 ], [ 106.686268679000023, 10.792404015999978 ], [ 106.686412674999985, 10.79228903 ] ] ] ] } }
]
}
