{
"type": "FeatureCollection",
"name": "polygon3",
"crs": { "type": "name", "properties": { "name": "urn:ogc:def:crs:OGC:1.3:CRS84" } },
"features": [
{ "type": "Feature", "properties": { "id": 3, "merge": "3" }, "geometry": { "type": "Polygon", "coordinates": [ [ [ 106.684016139635673, 10.784179589113378 ], [ 106.683738146635619, 10.783567617113377 ], [ 106.683567143635628, 10.783190572113384 ], [ 106.683528196635621, 10.783106608113386 ], [ 106.683489173635621, 10.783022643113398 ], [ 106.683198140635625, 10.782387564113392 ], [ 106.683145164635619, 10.782303641113415 ], [ 106.682690183635657, 10.781352613113384 ], [ 106.682460179635655, 10.780868609113398 ], [ 106.682419152635646, 10.780770636113417 ], [ 106.682409131635666, 10.780749600113396 ], [ 106.682305128635619, 10.780527591113369 ], [ 106.682081171635673, 10.780047635113377 ], [ 106.681998129635645, 10.779873570113367 ], [ 106.681865144635651, 10.779595594113417 ], [ 106.681752189635631, 10.779356614113411 ], [ 106.681679133635669, 10.779217600113398 ], [ 106.681485181635651, 10.778806628113401 ], [ 106.681456185635625, 10.778745597113371 ], [ 106.68145018663563, 10.778732595113368 ], [ 106.681271184635648, 10.77835159611341 ], [ 106.681221158635651, 10.778245603113376 ], [ 106.681131169635648, 10.778043622113401 ], [ 106.681131173635663, 10.777971654113415 ], [ 106.681132165635631, 10.777656656113393 ], [ 106.681044142635642, 10.777848595113383 ], [ 106.680998131635647, 10.77791961611338 ], [ 106.680938154635669, 10.778010659113377 ], [ 106.680714128635657, 10.778365657113412 ], [ 106.680558151635637, 10.778605627113407 ], [ 106.680402170635659, 10.778844603113399 ], [ 106.680301131635645, 10.778997612113372 ], [ 106.680259170635622, 10.779061659113395 ], [ 106.680163156635672, 10.779181653113383 ], [ 106.679989150635663, 10.77937158811342 ], [ 106.679967131635635, 10.779396608113373 ], [ 106.679924144635663, 10.779445649113384 ], [ 106.679909185635665, 10.77946160811338 ], [ 106.679752153635661, 10.779628618113421 ], [ 106.679655133635663, 10.779715614113414 ], [ 106.679550143635652, 10.779810590113371 ], [ 106.679517192635672, 10.779836637113377 ], [ 106.67929613363566, 10.780004654113398 ], [ 106.67924717063562, 10.780047654113403 ], [ 106.679178162635651, 10.780096594113402 ], [ 106.679110135635653, 10.78014562211338 ], [ 106.679070176635662, 10.780173587113396 ], [ 106.679005139635649, 10.780213655113371 ], [ 106.678968172635621, 10.780234651113417 ], [ 106.678753152635636, 10.780354640113401 ], [ 106.678578187635651, 10.780453624113377 ], [ 106.67845719863567, 10.780520621113411 ], [ 106.678377183635632, 10.78057058611337 ], [ 106.67831214463564, 10.78060965811342 ], [ 106.678211158635634, 10.780682653113402 ], [ 106.678056143635672, 10.780794595113392 ], [ 106.677880178635633, 10.7809116631134 ], [ 106.677802144635621, 10.7808456251134 ], [ 106.677765178635639, 10.7808666201134 ], [ 106.67735817263565, 10.781093601113369 ], [ 106.677260148635639, 10.781148682113397 ], [ 106.677223176635664, 10.781167598113385 ], [ 106.677185159635656, 10.781189683113396 ], [ 106.677089174635626, 10.781245665113389 ], [ 106.677079159635639, 10.781250668113401 ], [ 106.677050171635642, 10.781266666113382 ], [ 106.677005149635647, 10.781291664113397 ], [ 106.676852166635626, 10.78137765211342 ], [ 106.676817157635639, 10.781397647113366 ], [ 106.67669820463567, 10.781464638113405 ], [ 106.676619151635634, 10.781508633113404 ], [ 106.676573151635637, 10.781534629113381 ], [ 106.676514201635655, 10.781567625113397 ], [ 106.676504188635647, 10.781573623113403 ], [ 106.676421220635632, 10.781619618113396 ], [ 106.676379210635673, 10.781643613113388 ], [ 106.676295189635653, 10.78169060711339 ], [ 106.676209212635626, 10.781739687113387 ], [ 106.676057203635651, 10.781823683113387 ], [ 106.675962192635666, 10.781877672113367 ], [ 106.675864167635666, 10.781932665113416 ], [ 106.675847151635651, 10.781941666113383 ], [ 106.675756202635625, 10.781992658113396 ], [ 106.675711182635666, 10.782018651113404 ], [ 106.675690175635623, 10.782029654113401 ], [ 106.675636193635626, 10.782059652113404 ], [ 106.675581158635623, 10.782090646113389 ], [ 106.675491190635626, 10.782141637113412 ], [ 106.675372160635618, 10.782208626113416 ], [ 106.675210213635637, 10.782298618113387 ], [ 106.675141175635645, 10.782337611113419 ], [ 106.67509118263564, 10.782365608113381 ], [ 106.675079210635658, 10.78237161111339 ], [ 106.675051204635622, 10.782387606113403 ], [ 106.674907176635656, 10.782467691113382 ], [ 106.674838215635646, 10.782507677113372 ], [ 106.674770230635659, 10.782545673113376 ], [ 106.674740190635646, 10.782562670113421 ], [ 106.674715198635624, 10.782577662113411 ], [ 106.674658201635623, 10.78260866211339 ], [ 106.674588186635674, 10.782648654113373 ], [ 106.674524188635644, 10.78268365211342 ], [ 106.674480221635633, 10.782708647113409 ], [ 106.674444231635619, 10.78272864511338 ], [ 106.674407188635655, 10.782748646113376 ], [ 106.674368193635644, 10.782771637113413 ], [ 106.674318200635639, 10.78279963511342 ], [ 106.674289214635621, 10.782815633113401 ], [ 106.674187197635661, 10.782872626113388 ], [ 106.67433020563567, 10.783272633113384 ], [ 106.67434422563565, 10.783319696113395 ], [ 106.67436620963565, 10.783356699113384 ], [ 106.674383230635669, 10.783398690113373 ], [ 106.674394164635657, 10.783422617113402 ], [ 106.674404233635642, 10.783435697113376 ], [ 106.674426175635631, 10.783458686113377 ], [ 106.674469199635666, 10.783519676113386 ], [ 106.674491180635641, 10.78355568511337 ], [ 106.674529170635651, 10.783622657113384 ], [ 106.674536228635645, 10.783637645113416 ], [ 106.674540178635652, 10.783646673113381 ], [ 106.674540211635644, 10.783657614113409 ], [ 106.67453822863564, 10.783674616113402 ], [ 106.674535202635639, 10.783696686113402 ], [ 106.674533228635653, 10.783716674113421 ], [ 106.674535180635644, 10.783738637113416 ], [ 106.674540200635647, 10.783752637113381 ], [ 106.674551209635638, 10.783776652113389 ], [ 106.674566214635661, 10.783800658113378 ], [ 106.674600187635633, 10.783836631113402 ], [ 106.67464317763563, 10.783886681113373 ], [ 106.674656192635666, 10.783900656113374 ], [ 106.674717216635656, 10.783978680113378 ], [ 106.674731218635657, 10.783994642113399 ], [ 106.674759221635668, 10.784026654113418 ], [ 106.674786182635671, 10.784063642113395 ], [ 106.67479822763562, 10.784081688113375 ], [ 106.674809209635669, 10.784096663113374 ], [ 106.674834178635649, 10.784147672113377 ], [ 106.674849221635668, 10.784183612113409 ], [ 106.674862195635626, 10.784233660113401 ], [ 106.674876223635636, 10.784283616113399 ], [ 106.67488919863564, 10.784308622113386 ], [ 106.674900226635657, 10.784314646113401 ], [ 106.674917216635663, 10.784321649113409 ], [ 106.67493223763563, 10.784325672113383 ], [ 106.674942214635621, 10.784332694113417 ], [ 106.674963166635621, 10.784352612113381 ], [ 106.67497721963565, 10.784385661113404 ], [ 106.67499322563566, 10.784440675113402 ], [ 106.675011223635636, 10.784530671113387 ], [ 106.675017194635643, 10.784584629113411 ], [ 106.675025209635635, 10.784615616113413 ], [ 106.675045206635673, 10.784668629113369 ], [ 106.675052181635635, 10.784680632113421 ], [ 106.675067222635619, 10.784691617113381 ], [ 106.675080209635667, 10.784696642113389 ], [ 106.675092223635659, 10.784703658113372 ], [ 106.675105229635619, 10.784714649113383 ], [ 106.675118168635663, 10.784728624113384 ], [ 106.675178183635637, 10.784821660113394 ], [ 106.675254179635658, 10.784936617113388 ], [ 106.675356206635627, 10.785080610113383 ], [ 106.675396193635663, 10.785134647113367 ], [ 106.675430197635649, 10.785180655113393 ], [ 106.675507214635672, 10.785284671113416 ], [ 106.675688194635654, 10.785178617113402 ], [ 106.675934179635647, 10.785021650113393 ], [ 106.676161211635645, 10.784832642113386 ], [ 106.676375185635663, 10.7847136531134 ], [ 106.67644622563563, 10.784687674113414 ], [ 106.676658229635621, 10.784615613113388 ], [ 106.676953167635645, 10.784534625113409 ], [ 106.677233186635647, 10.784409650113403 ], [ 106.677639156635621, 10.784162604113376 ], [ 106.677793187635643, 10.784048675113368 ], [ 106.677963162635649, 10.784018600113384 ], [ 106.678432224635628, 10.784031661113389 ], [ 106.678974159635629, 10.784174603113414 ], [ 106.679463155635631, 10.784170602113377 ], [ 106.679664184635669, 10.78420860511342 ], [ 106.679930180635665, 10.784330585113381 ], [ 106.680146209635666, 10.784537612113368 ], [ 106.680219206635627, 10.784633590113415 ], [ 106.680291225635642, 10.784729663113367 ], [ 106.68040816663563, 10.784964653113391 ], [ 106.680525185635645, 10.785151635113394 ], [ 106.68066719963565, 10.785372627113375 ], [ 106.680750228635645, 10.785517578113414 ], [ 106.680787189635623, 10.785617643113383 ], [ 106.680828221635636, 10.785741654113409 ], [ 106.680842223635636, 10.785733657113397 ], [ 106.681128164635652, 10.785572587113407 ], [ 106.681165207635672, 10.785551590113371 ], [ 106.681370221635632, 10.785438591113419 ], [ 106.681582159635639, 10.785320598113415 ], [ 106.681611223635628, 10.785305594113382 ], [ 106.681786190635648, 10.78520660811337 ], [ 106.681970190635639, 10.785102623113417 ], [ 106.682339168635622, 10.784893655113379 ], [ 106.682482191635643, 10.784805615113399 ], [ 106.682572147635653, 10.78475064611338 ], [ 106.682607146635632, 10.784728569113398 ], [ 106.682688197635628, 10.784696591113416 ], [ 106.682747179635669, 10.784673629113414 ], [ 106.683100157635636, 10.784534597113421 ], [ 106.683600172635636, 10.784337618113412 ], [ 106.684016139635673, 10.784179589113378 ] ] ] } },
{ "type": "Feature", "properties": { "id": 4, "merge": "4" }, "geometry": { "type": "Polygon", "coordinates": [ [ [ 106.686419967000063, 10.792289418000053 ], [ 106.686680952000074, 10.792081404000044 ], [ 106.687005961000068, 10.791822386000035 ], [ 106.687513937000062, 10.791417339000077 ], [ 106.687525976000074, 10.791408352000076 ], [ 106.687706914000046, 10.791264320000039 ], [ 106.68772391400006, 10.791250346000027 ], [ 106.687793957000054, 10.791194349000023 ], [ 106.687968951000073, 10.791055399000072 ], [ 106.688118964000068, 10.790935330000025 ], [ 106.688484899000059, 10.790644360000044 ], [ 106.689000923000037, 10.790233321000073 ], [ 106.689101956000059, 10.790151373000072 ], [ 106.689300936000052, 10.789989385000069 ], [ 106.689333896000051, 10.78996631900003 ], [ 106.689546953000047, 10.789795337000044 ], [ 106.689921923000043, 10.789500361000023 ], [ 106.689985942000078, 10.789448361000041 ], [ 106.690067946000056, 10.789383378000025 ], [ 106.690121887000032, 10.789340358000061 ], [ 106.690177934000076, 10.789295345000028 ], [ 106.690277918000049, 10.789215388000059 ], [ 106.690652949000082, 10.78891634200005 ], [ 106.690799954000056, 10.788799354000048 ], [ 106.690811917000076, 10.788790368000036 ], [ 106.690867886000035, 10.788744358000031 ], [ 106.691322891000084, 10.788382324000054 ], [ 106.691625926000086, 10.788141359000065 ], [ 106.691658879000045, 10.78811531100007 ], [ 106.69175991600008, 10.788035352000065 ], [ 106.691964470000073, 10.787872489000051 ], [ 106.69196590100006, 10.787871350000046 ], [ 106.691965938000067, 10.787871320000022 ], [ 106.69221092500004, 10.787674321000054 ], [ 106.692740928000035, 10.787251299000047 ], [ 106.692803893000075, 10.787200297000027 ], [ 106.692939916000057, 10.787093377000076 ], [ 106.692960907000042, 10.787077312000065 ], [ 106.693021917000067, 10.787028302000067 ], [ 106.693324867000058, 10.786784354000076 ], [ 106.693465922000087, 10.78667136200005 ], [ 106.693606900000077, 10.786557284000025 ], [ 106.693656925000084, 10.786516357000039 ], [ 106.693731863000039, 10.78645934900004 ], [ 106.693931918000033, 10.786305311000035 ], [ 106.694024902000081, 10.78623034900005 ], [ 106.694069886000079, 10.786193323000077 ], [ 106.694317927000043, 10.785997369000029 ], [ 106.694331921000071, 10.785986295000043 ], [ 106.694384883000055, 10.785944363000056 ], [ 106.694589888000053, 10.785781360000044 ], [ 106.694707925000046, 10.785687332000066 ], [ 106.69474787200005, 10.785655294000037 ], [ 106.694767889000047, 10.785641310000074 ], [ 106.694816861000049, 10.785601290000045 ], [ 106.694864865000056, 10.785565341000051 ], [ 106.695037888000059, 10.785425308000072 ], [ 106.695823891000089, 10.78479834500007 ], [ 106.69596991800006, 10.784683347000055 ], [ 106.696139866000067, 10.784549291000076 ], [ 106.696405853000044, 10.78432932000004 ], [ 106.696578872000089, 10.784188292000067 ], [ 106.696773859000075, 10.784030291000022 ], [ 106.696902872000067, 10.783925289000024 ], [ 106.697048868000081, 10.783801341000071 ], [ 106.697207874000071, 10.783665328000041 ], [ 106.697267891000081, 10.783612344000062 ], [ 106.697309864000033, 10.783577316000049 ], [ 106.697323855000036, 10.783565340000052 ], [ 106.697377854000081, 10.783517346000053 ], [ 106.697581898000067, 10.783338340000057 ], [ 106.69761288400008, 10.783310309000058 ], [ 106.697633869000072, 10.783292342000038 ], [ 106.697766840000043, 10.783175306000032 ], [ 106.697927869000068, 10.783035308000024 ], [ 106.698086456000055, 10.782895538000048 ], [ 106.698087840000085, 10.782894319000036 ], [ 106.698087803000078, 10.782894273000068 ], [ 106.697903886000063, 10.782674276000023 ], [ 106.696436835000043, 10.78111627100003 ], [ 106.696076882000057, 10.780733303000034 ], [ 106.695874846000038, 10.780517294000049 ], [ 106.695526864000044, 10.780151286000034 ], [ 106.69499083900007, 10.77958133900006 ], [ 106.694463874000064, 10.779015343000026 ], [ 106.69393683800007, 10.778449346000059 ], [ 106.693071883000073, 10.777525352000055 ], [ 106.693035884000039, 10.777468320000025 ], [ 106.692868850000082, 10.777278332000037 ], [ 106.692670837000037, 10.777069360000041 ], [ 106.692579807000072, 10.776971359000072 ], [ 106.69231187400004, 10.776686293000068 ], [ 106.692019807000065, 10.776376345000074 ], [ 106.691652820000058, 10.776007317000051 ], [ 106.691075806000072, 10.775372299000026 ], [ 106.691033812000057, 10.775327312000059 ], [ 106.690570822000041, 10.774836336000021 ], [ 106.690541838000058, 10.774804328000073 ], [ 106.689991839000072, 10.774221304000037 ], [ 106.689767869000036, 10.773982301000046 ], [ 106.689695838000034, 10.773906302000057 ], [ 106.689429810000036, 10.773625387000038 ], [ 106.689425219000043, 10.77362785300005 ], [ 106.689051861000053, 10.773828331000061 ], [ 106.688904820000062, 10.773907344000065 ], [ 106.688629865000053, 10.774055368000063 ], [ 106.68821584300008, 10.774276321000059 ], [ 106.687666836000062, 10.774573358000055 ], [ 106.687537864000035, 10.774642370000038 ], [ 106.687083818000076, 10.774895360000073 ], [ 106.686845855000058, 10.775032329000055 ], [ 106.686397837000072, 10.775259352000035 ], [ 106.68597488100005, 10.775494343000048 ], [ 106.685818863000065, 10.775573383000051 ], [ 106.685598864000042, 10.775691400000028 ], [ 106.685519887000055, 10.775734404000048 ], [ 106.68523686900005, 10.775886338000021 ], [ 106.685046839000051, 10.775989347000063 ], [ 106.684964849000039, 10.776033353000059 ], [ 106.684588852000047, 10.776237372000026 ], [ 106.684325864000073, 10.776379387000077 ], [ 106.683713904000058, 10.776709336000067 ], [ 106.682800858000064, 10.77720239100006 ], [ 106.682077894000088, 10.777585381000051 ], [ 106.681838864000042, 10.777720361000036 ], [ 106.681624904000046, 10.777841433000049 ], [ 106.681623912000077, 10.77815643100007 ], [ 106.681623908000063, 10.778228399000056 ], [ 106.681713897000066, 10.778430380000032 ], [ 106.681763923000062, 10.778536373000065 ], [ 106.681942925000044, 10.778917372000024 ], [ 106.681948924000039, 10.778930374000026 ], [ 106.681977920000065, 10.778991405000056 ], [ 106.682171872000083, 10.779402377000054 ], [ 106.682244928000046, 10.779541391000066 ], [ 106.682357883000066, 10.779780371000072 ], [ 106.682490868000059, 10.780058347000022 ], [ 106.682573910000087, 10.780232412000032 ], [ 106.682797867000033, 10.780712368000025 ], [ 106.68290187000008, 10.780934377000051 ], [ 106.68291189100006, 10.780955413000072 ], [ 106.682952918000069, 10.781053386000053 ], [ 106.683182922000071, 10.78153739000004 ], [ 106.683637903000033, 10.782488418000071 ], [ 106.683690879000039, 10.782572341000048 ], [ 106.683981912000036, 10.783207420000053 ], [ 106.684020935000035, 10.783291385000041 ], [ 106.684059882000042, 10.783375349000039 ], [ 106.684230885000034, 10.783752394000032 ], [ 106.684508878000088, 10.784364366000034 ], [ 106.68409291100005, 10.784522395000067 ], [ 106.68359289600005, 10.784719374000076 ], [ 106.683239918000083, 10.784858406000069 ], [ 106.683180936000042, 10.784881368000072 ], [ 106.683099885000047, 10.784913346000053 ], [ 106.683064886000068, 10.784935423000036 ], [ 106.682974930000057, 10.784990392000054 ], [ 106.682831907000036, 10.785078432000034 ], [ 106.682462929000053, 10.785287400000072 ], [ 106.682278929000063, 10.785391385000025 ], [ 106.682103962000042, 10.785490371000037 ], [ 106.682074898000053, 10.785505375000071 ], [ 106.681862960000046, 10.785623368000074 ], [ 106.681657946000087, 10.785736367000027 ], [ 106.681620903000066, 10.785757364000062 ], [ 106.681334962000051, 10.785918434000052 ], [ 106.68132096000005, 10.785926431000064 ], [ 106.681349917000034, 10.786097404000031 ], [ 106.681412898000076, 10.786148388000072 ], [ 106.681475957000089, 10.78620036500007 ], [ 106.681700956000043, 10.786331418000032 ], [ 106.682008901000074, 10.78640942100003 ], [ 106.68252693800008, 10.786553424000033 ], [ 106.682816941000056, 10.786633379000023 ], [ 106.682995926000046, 10.786688351000066 ], [ 106.683179909000046, 10.786749369000063 ], [ 106.683281924000084, 10.78681442900006 ], [ 106.683361897000054, 10.786922410000045 ], [ 106.683466946000067, 10.787090350000028 ], [ 106.683535951000067, 10.787236428000028 ], [ 106.683577953000054, 10.787381412000059 ], [ 106.683592913000041, 10.787585426000021 ], [ 106.683596948000059, 10.78779336100007 ], [ 106.683550953000065, 10.788016365000033 ], [ 106.683336943000086, 10.788465362000068 ], [ 106.683156980000035, 10.788583349000021 ], [ 106.68295493100004, 10.788631424000073 ], [ 106.682636922000086, 10.788641425000037 ], [ 106.682165935000057, 10.788568434000069 ], [ 106.681905979000078, 10.788621385000056 ], [ 106.681750971000042, 10.78873640300003 ], [ 106.681561932000079, 10.788944376000074 ], [ 106.681488941000055, 10.789144407000038 ], [ 106.681444937000037, 10.78937843500006 ], [ 106.681404989000043, 10.789998419000028 ], [ 106.681429924000042, 10.790381418000038 ], [ 106.681466946000057, 10.79062342900005 ], [ 106.68151296800005, 10.790922372000068 ], [ 106.681593929000087, 10.791130439000028 ], [ 106.681655997000064, 10.791276355000036 ], [ 106.681811994000043, 10.791433384000072 ], [ 106.681963965000079, 10.791580387000067 ], [ 106.682002997000041, 10.791618423000045 ], [ 106.682217952000087, 10.791792362000024 ], [ 106.682352980000076, 10.791874410000048 ], [ 106.682545960000084, 10.791991364000069 ], [ 106.682741942000064, 10.792127386000061 ], [ 106.682986934000041, 10.792234418000021 ], [ 106.683277977000046, 10.792332361000035 ], [ 106.683584001000042, 10.792420402000062 ], [ 106.683934861000068, 10.792447868000068 ], [ 106.683940972000073, 10.792448347000061 ], [ 106.684486955000068, 10.792406374000052 ], [ 106.684609968000075, 10.792383402000041 ], [ 106.684894967000048, 10.792331367000031 ], [ 106.685382949000086, 10.792239390000077 ], [ 106.685586089000083, 10.792226503000052 ], [ 106.685587975000033, 10.79222638300007 ], [ 106.68580094500004, 10.792246353000053 ], [ 106.685837935000052, 10.792257363000033 ], [ 106.685875980000048, 10.792268368000066 ], [ 106.685938923000037, 10.792306331000077 ], [ 106.686128706000034, 10.792515786000024 ], [ 106.686131930000045, 10.792519344000027 ], [ 106.686131973000045, 10.792519389000063 ], [ 106.686275971000043, 10.79240440500007 ], [ 106.686419967000063, 10.792289418000053 ] ] ] } }
]
}
